no,name,kind,phone,address,postal_code
1,北京市顺义区李遂中心幼儿园,61幼儿园,89481707,北京市顺义区李遂镇政府街南孙路李遂段,
2,北京市顺义区长颈鹿幼儿园,61幼儿园,69443333,北京市顺义区裕龙花园二区四号楼,
3,北京市顺义区石园北区幼儿园,61幼儿园,69443353,北京市顺义区石园北区20号楼南,
4,北京市顺义区天竺中心幼儿园,61幼儿园,64568509,北京市顺义区天竺地区府前一街20号,
5,北京市顺义区滨河幼儿园,61幼儿园,69426048,北京市顺义区滨河小区14号楼前,
6,北京市顺义区石园幼儿园,61幼儿园,89444844,北京市顺义区石园西区20号楼,
7,北京市顺义区木林中心幼儿园,61幼儿园,60459100,北京市顺义区木林镇顺焦路木林段83号,
8,北京市顺义区采风幼儿园,61幼儿园,13718685199,北京市顺义区南彩镇前俸伯村,
9,北京市新英才学校,61幼儿园,80413005,北京市顺义区后沙峪镇安华街9号,
10,北京市顺义区建南幼儿园,61幼儿园,81492543,北京市顺义区建新南区36号楼,
11,北京市顺义区裕龙幼儿园,61幼儿园,89406136,北京市顺义区裕龙花园四区13号楼,
12,北京市顺义区双兴幼儿园,61幼儿园,81491161,北京市顺义区双兴南区26号楼东,
13,北京市顺义区万科城市花园幼儿园,61幼儿园,80497699,北京市顺义区天竺空港开发区B区万科城市花园,
14,北京市顺义区金汉绿港幼儿园,61幼儿园,60417288,北京市顺义区金汉绿港三区,
15,北京市顺义区泛美幼儿园,61幼儿园,89497758,北京市顺义区顺通路29号,
16,北京市顺义区马坡中心幼儿园,61幼儿园,69404385,北京市顺义区马坡镇马坡花园西侧,
17,北京市顺义区北石槽中心幼儿园,61幼儿园,60422127,北京市顺义区北石槽镇府前西街2号,
18,北京市顺义区牛山中心幼儿园,61幼儿园,69414003,北京市顺义区牛栏山镇府前街24号,
19,北京市顺义区怡馨幼儿园,61幼儿园,69421015,北京市顺义区怡馨家园27号楼,
20,北京市顺义区港馨幼儿园,61幼儿园,89448913,北京市顺义区港馨家园小区西区,
21,北京市顺义区幸福幼儿园,61幼儿园,69423143,北京市顺义区幸福西街六号,
22,北京市顺义区欢乐堡幼儿园,61幼儿园,81746818,北京市昌平区回龙观体育公园中央,
23,北京市顺义区南彩第一幼儿园,61幼儿园,89469256,北京市顺义区南彩镇南彩中大街9号,
24,北京市顺义区北务中心幼儿园,61幼儿园,61421717,北京市顺义区北务镇政府街4号,
25,北京市顺义区建北幼儿园,61幼儿园,69442746,北京市顺义区建新北区37号,
26,北京市顺义区高丽营中心幼儿园,61幼儿园,69491354,北京市顺义区高丽营镇张喜庄村托新区14号,
27,北京市顺义区高丽营中心幼儿园分园,61幼儿园,69455943,北京市顺义区高丽营镇火泗路13号,
28,北京市顺义区赵全营中心幼儿园,61幼儿园,60431157,北京市顺义区赵全营镇政府路北牛板路赵全营段113号,
29,北京市顺义区宏城幼儿园,61幼儿园,89423320,北京市顺义区前进花园石门苑22号,
30,北京市顺义区李桥中心幼儿园,61幼儿园,69485882,北京市顺义区李桥镇沿河村任李路沿河段17号,
31,北京市顺义区木林镇王泮庄幼儿园,61幼儿园,60459100,北京市顺义区木林镇王泮庄中街53号,
32,北京市顺义区木林镇大韩庄幼儿园,61幼儿园,60448441,北京市顺义区木林镇大韩庄中路29号,
33,北京市顺义区尹家府中心幼儿园,61幼儿园,61474200,北京市顺义区大孙各庄镇四福通大街82号,
34,北京市顺义区尹家府幼儿园分园,61幼儿园,61432041,北京市顺义区大孙各庄镇府前街8号,
35,北京市顺义区张镇中心幼儿园,61幼儿园,61483868,北京市顺义区张镇张各庄村建新二路,
36,北京市顺义区张镇赵各庄分园,61幼儿园,61483868,北京市顺义区张镇赵各庄村,
37,北京市顺义区仁和中心幼儿园,61幼儿园,89446064,北京市顺义区石园南区,
38,北京市顺义区仁和镇平各庄村幼儿园,61幼儿园,89491485,北京市顺义区仁和镇平各庄村,
39,北京市顺义区仁和镇庄头村幼儿园,61幼儿园,15910481726,北京市顺义区仁和地区庄头村,
40,北京市顺义区后沙峪中心幼儿园,61幼儿园,80496148,北京市顺义区后沙峪镇政府东侧双裕街31号,
41,北京市顺义区后沙峪白辛庄幼儿园,61幼儿园,80496148,北京市顺义区后沙峪镇白辛庄,
42,北京市顺义区南彩第二幼儿园,61幼儿园,89476088,北京市顺义区南彩镇镇政府东侧,
44,北京市顺义区南法信中心幼儿园,61幼儿园,69473313,北京市顺义区南法信政府北顺余西路3号,
45,北京市顺义区北小营中心幼儿园,61幼儿园,60483603,北京市顺义区北小营镇永利小区路北,
46,北京市顺义区西辛幼儿园,61幼儿园,69461095,北京市顺义区西辛南区,
47,北京市顺义区温莎双语幼儿园,61幼儿园,64575413,北京市顺义区首都机场路89号丽京花园,
48,北京市顺义区馨港幼儿园,61幼儿园,81477259,北京市顺义区李桥镇馨港庄园二区2号楼,
49,北京市顺义区伊顿幼儿园,61幼儿园,80472383,北京市顺义区天竺镇花梨坎村,
50,北京市顺义区义宾幼儿园,61幼儿园,69422956,北京市顺义区义宾南区甲10号,
51,北京市顺义区杨镇中心幼儿园,61幼儿园,61451973,北京市顺义区杨镇政府街4号,
52,北京市顺义区杨镇幼儿园小店分园,61幼儿园,61451973,北京市顺义区杨镇辛庄子村,
53,北京市顺义区龙湾屯中心幼儿园,61幼儿园,60461747,北京市顺义区龙湾屯镇府前街路南东侧4号,
54,北京市顺义区汇佳东方幼儿园,61幼儿园,89431740,北京市顺义区东方太阳城万晴园54号,
55,北京市顺义区景福幼儿园,61幼儿园,89452591,北京市顺义区顺福路2号金碧湖畔42号,
56,北京市东城区东华门幼儿园,61幼儿园,65254467,北京市东城区北河沿大街149号,
57,北京市东城区东四五条幼儿园,61幼儿园,64040197,北京市东城区东四五条41号,
58,北京市东城区大方家回民幼儿园,62独立设置的少数民族幼儿园,65229658,北京市东城区朝内后芳嘉园3号楼,
59,北京市东城区新中街幼儿园,61幼儿园,64602141,北京市东城区东直门外胡家园小区24号楼,
60,北京市第一幼儿园,61幼儿园,64049426,北京市东城区东四北大街汪芝麻胡同19号,
61,北京市第三幼儿园,61幼儿园,66025200,北京市东城区中华路4号（中山公园内）,
62,北京市东城区华丰幼儿园,61幼儿园,84220194,北京市东城区和平里六区21号楼,
63,北京市东城区北新桥北新幼儿园,61幼儿园,84063416,北京市东城区北新桥北新胡同三巷3号,
64,北京市第七幼儿园,61幼儿园,64045749,北京市东城区宝钞胡同23号,
65,北京市东城区分司厅幼儿园,61幼儿园,64046854,北京市东城区分司厅胡同57号,
66,北京市东城区东棉花胡同幼儿园,61幼儿园,64044144,北京市东城区东棉花胡同20号,
67,北京市东城区和平里街道柏林托儿所,61幼儿园,64215045,北京市东城区和平里南口民旺一区甲18号,
68,北京市东城区和平里一区幼儿园,61幼儿园,84222019,北京市东城区和平里一区甲4号楼院,
69,北京市东城区交道口兴华幼儿园,61幼儿园,64044121,北京市东城区交道口后鼓楼苑36号,
70,北京市第二幼儿园,61幼儿园,64035990,北京市东城区北新桥三条38号,
71,北京市艾毅幼儿园,61幼儿园,84511380,北京市东城区东直门外大街35号东湖别墅C座101、201,
73,商务部幼儿园,61幼儿园,65246219,北京市东城区台基厂三条二号,
74,北京市东城区安定门大经厂幼儿园,61幼儿园,64024656,北京市东城区安定门北下洼子胡同16号,
75,冶金幼儿园,61幼儿园,84117771,北京市东城区安德路47号院,
77,北京市东城区卫生局第三幼儿园,61幼儿园,64215178,北京市东城区和平里民旺园甲7号,
78,财政部幼儿园,61幼儿园,64040708,北京市东城区西扬威胡同甲12号,
79,北京市东城区世纪贝贝自然教育幼儿园,61幼儿园,84112193,北京市东城区青年湖西里4号楼院,
80,北京市东城区卫生局第一幼儿园,61幼儿园,65251975,北京市东城区锡拉胡同19号,
81,北京市自来水集团有限责任公司东直门幼儿园,61幼儿园,64651577,北京市东城区东直门外北大街甲4号,
83,国家林业局幼儿园,61幼儿园,64212759,北京市东城区和平里七区21号,
85,北京市第一幼儿园附属实验园,61幼儿园,84275712,北京市东城区安外大街青年沟路小黄庄七号楼,
86,北京市东城区景山黄化门幼儿园,61幼儿园,64044510,北京市东城区黄化门大街8号,
87,北京市东城区景山魏家幼儿园,61幼儿园,64040406,北京市东城区魏家胡同19号,
88,北京市鸿运达物业管理有限责任公司第一幼园,61幼儿园,62360237,北京市东城区旧鼓楼外大街64号,
89,化工幼儿园,61幼儿园,64212890,北京市东城区和平里兴化东里28号,
90,国家安全生产监督管理总局机关服务中心幼儿,61幼儿园,64250516,北京市东城区和平里九区甲三号,
91,北京市公安局幼儿园,61幼儿园,83220528,北京市西城区松树街7号,
92,北京市西城区展览路街道北营幼儿园,61幼儿园,68358449,北京市西城区北营房西里11号楼西侧,
93,机械机关幼儿园,61幼儿园,68312251,北京市西城区百万庄北街2号,
94,物资机关幼儿园,61幼儿园,68392845,北京市西城区月坛北街25号,
95,北京市第六幼儿园,61幼儿园,64038773,北京市西城区旧鼓楼大街大石桥胡同43号,
96,北京市西城区月坛街道办事处第一幼儿园,61幼儿园,68527284,北京市西城区三里河北街23号,
97,北京市西城区棉花胡同幼儿园,61幼儿园,83228846,北京市西城区棉花胡同78号,
98,北京市西城区广电银河艺术幼儿园,61幼儿园,66138912,北京市西城区育德胡同15号,
99,北京市西城区培智中心学校展览路幼儿园,61幼儿园,66180449,北京市西城区西直门外大街德宝新园23号,
100,中共中央直属机关事务管理局实验幼儿园,61幼儿园,82273809,北京市西城区新风街1号院甲2号楼,
102,北京德采幼儿园,61幼儿园,68343693,北京市西城区德宝新园18号,
104,北京市西城区新街口街道果子市幼儿园,61幼儿园,84030358,北京市西城区鼓楼西大街169号,
106,北京市西城区新街口街道高井幼儿园,61幼儿园,62252405,北京市西城区西直门内大街高井胡同16号,
107,北京市西城区民族团结幼儿园,62独立设置的少数民族幼儿园,82022377,北京市西城区新外大街新明胡同乙1号,
108,北京市西城区华新幼儿园,61幼儿园,66125962,北京市西城区西四北三条后11号,
109,北京市西城区西四北幼儿园,61幼儿园,66181545,北京市西城区西四北三条11号,
110,北京市西城区什刹海街道大拐棒幼儿园,61幼儿园,66176168,北京市西城区大拐棒胡同15号,
111,北京市西城区月坛街道办事处第四幼儿园,61幼儿园,68026906,北京市西城区南礼士路46号,
112,北京市西城区曙光幼儿园,61幼儿园,66136378,北京市西城区西直门内小后仓36号,
113,中共中央办公厅警卫局北长街幼儿园,61幼儿园,63093638,北京市西城区北长街89号,
114,中共中央组织部机关服务中心幼儿园,61幼儿园,66036524,北京市西城区西单北大街小酱坊胡同31号,
115,北京市农业局幼儿园,61幼儿园,82078480,北京市西城区裕中西里甲1号,
116,北京市西城区洁民幼儿园,61幼儿园,62070338,北京市西城区马甸裕中西里小区36号楼,
117,国家发展和改革委员会三里河幼儿园,61幼儿园,68537536,北京市西城区三里河一区丙68号,
118,公安部幼儿园,61幼儿园,63262062,北京市西城区木樨地北里2号,
119,北京洁如幼儿园,61幼儿园,66018828,北京市西城区成方街29号,
120,中石油华油北京服务总公司幼儿园,61幼儿园,62069998,北京市西城区六铺炕3区甲15号,
121,北京市西城区长安幼儿园,61幼儿园,66022312,北京市西城区前门西大街139号,
122,北京市北海幼儿园,61幼儿园,64070491,北京市西城区地安门西大街22号,
123,北京市西城区金融街街道新京畿道实验幼儿园,61幼儿园,66022044,北京市西城区二龙路京畿道12号楼,
124,商业三里河幼儿园,61幼儿园,68522532,北京市西城区三里河二区18号,
125,文化部幼儿园,61幼儿园,59882148,北京市西城区旧鼓楼大街小石街胡同甲24号,
126,北京市西城区幸福泉幼儿园,61幼儿园,66560982,北京市西城区南草场冠英园西区8号,
127,中国儿童中心实验幼儿园,61幼儿园,66180170,北京市西城区平安里西大街43号,
128,北京市东城区回民幼儿园,62独立设置的少数民族幼儿园,67192709,北京市东城区东花市北里东区12号楼,
129,北京市东城区第二幼儿园,61幼儿园,67116076,北京市东城区广渠门内大街31号,
130,北京市东城区光明幼儿园,61幼儿园,67116906,北京市东城区光明楼甲25号,
131,北京市东城区永定门幼儿园,61幼儿园,51331358,北京市东城区永定门车站路12号,
132,北京市东城托儿所,61幼儿园,67155731,北京市东城区体育馆路街道法华南里甲14号,
133,北京市东城区安乐幼儿园,61幼儿园,67212868,北京市东城区永外杨家园路10号,
134,北京市东城区前门幼儿园,61幼儿园,67115191,北京市东城区东花市北里西区9号,
135,北京市大地实验幼儿园,61幼儿园,67115191,北京市东城区东花市北里西区9号,
136,北京市东城区第三幼儿园,61幼儿园,67115628,北京市东城区幸福北里甲12号,
137,北京市东城区永东幼儿园,61幼儿园,67025321,北京市东城区永定门东街中里23号,
138,北京市第五幼儿园,61幼儿园,67123410,北京市东城区夕照寺街3号,
140,中共北京市委机关幼儿园,61幼儿园,67111793,北京市东城区光明路一号,
141,北京市东城区红湖幼儿园,61幼儿园,67123029,北京市东城区龙潭北里三条3号,
142,北京市东城区西草市幼儿园,61幼儿园,67022454,北京市东城区西草市东街60号,
143,北京市第五幼儿园分园,61幼儿园,67161804,北京市东城区法华南里33号楼,
144,北京市西城区实验幼儿园,61幼儿园,63029395,北京市西城区南新华街21号,
145,北京市西城区里仁街幼儿园,61幼儿园,63514059,北京市西城区宏建北里13号,
146,市政府机关事务管理办公室幼儿园,61幼儿园,83122066,北京市西城区长椿里2号,
147,华电（北京）热电有限公司幼儿园,61幼儿园,63437527,北京市西城区天宁寺东里4号,
148,北京印钞有限公司幼儿园,61幼儿园,63543344-2737,北京市西城区白纸坊街23号,
149,北京中铁信达经贸有限公司幼儿园,61幼儿园,51861817,北京市西城区广外车站东街甲5号,
150,北京市西城区警娃艺术幼儿园,61幼儿园,63312953,北京市西城区太平里甲6号,
151,北京市西城区幸福时光陶然幼儿园,61幼儿园,83515511,北京市西城区黑窑厂西里甲11号,
152,北京市西城区大栅栏西柳树井幼儿园,61幼儿园,63168715,北京市西城区珠市口西大街111号,
153,北京市西城区大栅栏大安澜营幼儿园,61幼儿园,63035971,北京市西城区大安澜营胡同13号,
154,北京市西城区虎坊路幼儿园,61幼儿园,63153075,北京市西城区虎坊路甲14号,
155,北京市西城区名苑幼儿园,61幼儿园,63395670-203,北京市西城区广外红居街6号,
156,北京市西城区长椿街幼儿园,61幼儿园,83154153,北京市西城区西便门东里11号,
157,北京市西城区和平门幼儿园,61幼儿园,63181953,北京市西城区上斜街66号,
158,北京市西城区小百合幼儿园,61幼儿园,83126992,北京市西城区长椿街甲1号,
159,北京市西城区回民幼儿园,62独立设置的少数民族幼儿园,63521697,北京市西城区南横西街119号,
160,北京市西城区三教寺幼儿园,61幼儿园,83534103,北京市西城区里仁街12号,
161,北京市第四幼儿园,61幼儿园,63520354,北京市西城区南樱桃园三条7号,
162,北京市西城区南菜园幼儿园,61幼儿园,63541326,北京市西城区菜园街五层公寓楼2号,
163,北京市西城区三义里第一幼儿园,61幼儿园,63288032,北京市西城区三义东里9号,
164,北京市西城区三义里第二幼儿园,61幼儿园,63425942,北京市西城区广外三义西里7-2号,
165,北京市西城区马连道幼儿园,61幼儿园,63422354,北京市西城区广安门外红莲中里10号,
166,北京市西城区樱桃园幼儿园,61幼儿园,63522598,北京市西城区右内大街53号,
167,北京市西城区槐柏幼儿园,61幼儿园,63039953,北京市西城区槐柏树街10号,
168,北京市西城区汇佳北欧幼儿园,61幼儿园,63354580,北京市西城区马连道路80号,
169,国务院机关事务管理局花园村幼儿园广源分园,61幼儿园,63315638,北京市西城区广外大街305号3区8号楼,
170,中建一局建设发展公司幼儿园,61幼儿园,64726644-337,北京市朝阳区望花路西里13号楼,
171,北京市朝阳区二十一世纪实验幼儿园,61幼儿园,84857622,北京市朝阳区北苑路86号院三区8号楼,
172,北京市朝阳区精诚实验幼儿园,61幼儿园,67318093,北京市朝阳区松榆西里甲34号,
173,北京市朝阳区群星幼儿园,61幼儿园,64223248,北京市朝阳区西坝河西里12号,
174,北京市朝阳区华洋紫竹幼儿园,61幼儿园,65438567,北京市朝阳区管庄双柳北街1号院9号楼,
175,北京市朝阳区清友实验幼儿园,61幼儿园,84966425,北京市朝阳区北苑家园清友园小区13号,
176,北京市朝阳区光华路幼儿园,61幼儿园,65584729,北京市朝阳区通惠家园16号,
177,北京市朝阳区京通幼儿园,61幼儿园,65700438,北京市朝阳区京通苑38号楼,
178,北京市朝阳区亚奥幼儿园,61幼儿园,84908918,北京市朝阳区安外北苑北辰绿色家园,
179,北京市朝阳区西坝河第三幼儿园,61幼儿园,64678598,北京市朝阳区西坝河中里20号楼,
180,普天首信通信设备厂（集团）幼儿园,61幼儿园,64331487,北京市朝阳区酒仙桥三街坊7号楼前,
181,北京市朝阳区六里屯街道中心幼儿园,61幼儿园,65957662,北京市朝阳区道家园小区4号,
182,北京市朝阳区手牵手幼儿园,61幼儿园,65427846,北京市朝阳区双桥双惠小区内甲2号,
183,北京市朝阳区香河园街道办事处西坝河东里园,61幼儿园,64678696,北京市朝阳区西坝河东里71号楼,
184,北京市朝阳区安华里幼儿园,61幼儿园,64234828,北京市朝阳区安华里二区12号楼,
185,北京星海艺术幼儿园,61幼儿园,67348744,北京市朝阳区松榆西里64号,
186,北京市朝阳区雨禾艺术幼儿园,61幼儿园,67352090,北京市朝阳区农光东里10号楼,
187,北京首都机场物业管理有限公司幼教中心三幼,61幼儿园,64591138,北京市朝阳区首都机场南坪里,
188,北京市朝阳区翠成幼儿园,61幼儿园,67368331,北京市朝阳区翠城馨园211号,
189,北京市朝阳区启航双语幼儿园,61幼儿园,64349438,北京市朝阳区酒仙桥四街坊六号院,
190,北京市蓓蕾幼儿园,61幼儿园,85825292,北京市朝阳区十里堡北区1号院,
191,北京市朝阳区双龙实验幼儿园,61幼儿园,87327329,北京市朝阳区双龙南里225楼,
192,北京市朝阳区艾毅多元智能幼儿园,61幼儿园,85839477,北京市朝阳区八里庄南里28号院,
193,北京市朝阳区威斯顿幼儿园,61幼儿园,87950566,北京市朝阳区百子湾西里113号,
194,北京市朝阳区劲松第二幼儿园,61幼儿园,67781987,北京市朝阳区劲松七区711楼,
195,团结湖第一幼儿园福怡苑分园,61幼儿园,65407227,北京市朝阳区定福庄北街福怡苑小区6号楼,
196,北京市朝阳区松榆里幼儿园,61幼儿园,67339917,北京市朝阳区松榆里21号楼,
197,北京市朝阳区垡头幼儿园,61幼儿园,67363517,北京市朝阳区垡头二区十二号,
198,北京飞机维修工程有限公司幼儿园,61幼儿园,65461122-3365,北京市朝阳区首都机场南路东里20号,
199,北京市建材制品总厂幼儿园,61幼儿园,85779110,北京市朝阳区高井2号,
200,北京市朝阳区奇德儿奥尔夫艺术幼儿园,61幼儿园,62848727,北京市朝阳区花虎沟8号院澳景花庭小区,
201,北京佳华安琪幼儿园,61幼儿园,67368528,北京市朝阳区垡头北里20楼,
202,北京市朝阳区幸福泉世茂幼儿园,61幼儿园,84942033,北京市朝阳区清林路1号世贸奥临花园8号,
203,北京市朝阳区童欣幼儿园,61幼儿园,64736605,北京市朝阳区花家地北里9号楼,
204,北京市朝阳区小金星幼儿园,61幼儿园,84673411,北京市朝阳区立清路明天第一城5号院2号楼,
205,北京市忠德双语幼儿园,61幼儿园,65434896,北京市朝阳区东苇路9号,
206,北京市朝阳区可儿幼儿园,61幼儿园,85371225,北京市朝阳区双桥东路9号康城花园小区,
207,北京市朝阳区名山幼儿园,61幼儿园,58610997,北京市朝阳区西大望路59号风度柏林小区8号楼,
208,北京市朝阳区乐儿幼儿园,61幼儿园,87954167,北京市朝阳区西大望路19号,
209,北京市朝阳区星河湾德福双语幼儿园,61幼儿园,85560306,北京市朝阳区朝阳北路四季星河中街3号,
210,北京市朝阳区博凯智能全纳幼儿园,61幼儿园,64984204,北京市朝阳区安慧北里雅园3号,
211,北京市朝阳区和平街幼儿园,61幼儿园,64211548,北京市朝阳区和平街8区6号楼,
212,北京金雁飞鸣幼儿园,61幼儿园,65710019,北京市朝阳区三间房南里四号院内,
213,农业部机关幼儿园,61幼儿园,65075528,北京市朝阳区农展南路11号,
214,北京市工商业联合会安贞东里幼儿园,61幼儿园,64455568-814,北京市朝阳区安贞里二区9号楼,
215,北京市朝阳区十八里店乡横街子村向阳幼儿园,61幼儿园,87301238,北京市朝阳区十八里店乡横街子村,
216,北京九龙幼儿园,61幼儿园,67786418,北京市朝阳区东三环中路18号,
217,北京市朝阳区十八里店兴华幼儿园,61幼儿园,67483161,北京市朝阳区十八里店乡十八里店村886号,
218,北京市朝阳区百年实验艺术幼儿园,61幼儿园,64317977,北京市朝阳区崔各庄乡何各庄村,
219,北京市朝阳区彩虹路幼儿园,61幼儿园,64320945,北京市朝阳区酒仙桥北路7号,
220,北京市朝阳区格顿双语幼儿园,61幼儿园,64786186,北京市朝阳区望京北路39号院澳洲康都9号楼,
221,北京市朝阳区三为园托幼中心,61幼儿园,84705128,北京市朝阳区香江北路马泉营四区36号,
222,北京市朝阳区家育苑幼托中心,61幼儿园,58697540,北京市朝阳区东三环中路39号建外SOHO西区14号楼旁边,
223,北京市朝阳区艾毅双语幼儿园,61幼儿园,84467287,北京市朝阳区霞光里66号远洋新干线E座,
224,北京市朝阳区管庄建东苑幼儿园,61幼儿园,65723265,北京市朝阳区管庄建东苑28号,
225,北京市朝阳区伊顿双语幼儿园,61幼儿园,65398967,北京市朝阳区朝阳公园南路8号棕榈泉国际公寓,
226,北京市朝阳区根姆赞蒂双语幼儿园,61幼儿园,64325071,北京市朝阳区将台路西芳园里小区甲12号楼院内,
227,北京市朝阳区劲松第一幼儿园,61幼儿园,67797762,北京市朝阳区劲松一区126楼,
228,中国聋儿康复研究中心启聪幼儿园,61幼儿园,84642980,北京市朝阳区高原街惠新里小营甲8号,
229,北京市朝阳区安华里第二幼儿园,61幼儿园,64251691,北京市朝阳区安华西里一区23号,
231,中国传媒大学幼儿园,61幼儿园,65779649,北京市朝阳区定福庄东街1号20号楼,
232,北京市朝阳区呼家楼街道中心幼儿园,61幼儿园,65926442,北京市朝阳区呼家楼北街甲4号,
233,北京市朝阳区花家地幼儿园,61幼儿园,84719270,北京市朝阳区花家地小区11楼,
234,北京市朝阳区建筑工程公司幼儿园,61幼儿园,85611872,北京市朝阳区东大桥路13号院,
235,北京市朝阳区十八里店乡吕家营村幼儿园,61幼儿园,87696376,北京市朝阳区十八里店乡吕家营村,
236,中国建筑材料科学研究院幼儿园,61幼儿园,51167311,北京市朝阳区管庄东里30号,
237,北京市朝阳区环宇幼儿园,61幼儿园,67764996,北京市朝阳区东三环南路48号,
238,北京市朝阳区先策幼儿园,61幼儿园,84927579,北京市朝阳区北辰绿色家园B3区天朗园甲1号,
239,北京市朝阳区小橡树三元桥幼儿园,61幼儿园,84483551,北京市朝阳区西坝河东里30号楼,
240,北京市朝阳区孙瑞雪至尊宝宝幼儿园,61幼儿园,64964738,北京市朝阳区安慧北里逸园23号,
241,北京市朝阳区太阳花开音乐艺术幼儿园,61幼儿园,64959849,北京市朝阳区北四环东路干杨树甲16号,
242,北京市朝阳区金色摇篮潜能开发婴幼园,61幼儿园,51095200,北京市朝阳区慧忠北里206号,
243,北京市朝阳区团结湖第一幼儿园,61幼儿园,65824200,北京市朝阳区团结湖北头条11号楼,
244,北京市朝阳区金盏乡人民政府中心幼儿园,61幼儿园,84317579,北京市朝阳区金盏乡楼梓庄村东,
245,中国科学院第四幼儿园,61幼儿园,62007462,北京市朝阳区华严里祁家豁子社区大院,
246,外交部幼儿园,61幼儿园,65023412,北京市朝阳区光华西里2号,
247,北京松彩幼儿园,61幼儿园,64382321,北京市朝阳区大山子荧屏里6号楼,
248,北京市朝阳区左家庄街道中心幼儿园,61幼儿园,64660909,北京市朝阳区三元里街10号楼,
249,中华女子学院附属实验幼儿园,61幼儿园,64940752,北京市朝阳区小营路育慧西里锦绣馨园25号,
250,北京市朝阳区海嘉实验幼儿园,61幼儿园,64840699,北京市朝阳区大屯路枫林绿洲西奥中心A座,
251,北京工业大学后勤服务集团幼儿教育中心,61幼儿园,67391807,北京市朝阳区平乐园100号,
252,北京市朝阳区培基双语幼儿园,61幼儿园,64739197,北京市朝阳区花家地西里219楼,
253,北京市朝阳区花家地婴幼儿培育中心,61幼儿园,64739351,北京市朝阳区花家地小区11号楼,
254,北京首都机场物业管理有限公司幼教中心一幼,61幼儿园,64565213,北京市朝阳区首都机场燕翔西里18号,
255,北京市朝阳区伊顿慧智双语幼儿园,61幼儿园,84780511,北京市朝阳区望京宝星国际社区2期111楼,
256,北京市朝阳区满天星幼儿园,61幼儿园,85822980,北京市朝阳区八里庄北里119号,
257,北京市朝阳区爱丽尔幼儿园,61幼儿园,65570730,北京市朝阳区八里庄东里1号,
258,北京市朝阳区中育万科青青幼儿园,61幼儿园,85301572,北京市朝阳区豆各庄乡5号院青青家园内,
259,北京市朝阳区青苗幼儿园,61幼儿园,64669255,北京市朝阳区亮马桥路40号二十一世纪饭店B座一层,
260,北京市朝阳区培华实验幼儿园,61幼儿园,65934130,北京市朝阳区红庙北里9号楼,
261,北京市朝阳区康泉新城幼儿园,61幼儿园,65463458,北京市朝阳区双桥东路12号院5号楼,
262,北京市朝阳区德福双语幼儿园,61幼儿园,58767811,北京市朝阳区东三环南路大路园2号,
263,北京市朝阳区西坝河第一幼儿园,61幼儿园,84552043,北京市朝阳区西坝河东里71号楼,
264,北京市朝阳区望京新城幼儿园,61幼儿园,64705478,北京市朝阳区望京新城西园四区409楼,
265,北京电子城幼儿园,61幼儿园,51306817,北京市朝阳区酒仙桥一街坊甲2号,
266,北京市朝阳区亚运村第一幼儿园,61幼儿园,64935510,北京市朝阳区安慧里三区13号楼,
267,北京市朝阳区团结湖街道中心幼儿园,61幼儿园,85989218,北京市朝阳区团结湖水碓子东里26号楼,
270,北京市朝阳区松榆东里幼儿园,61幼儿园,67343168,北京市朝阳区松榆东里30号楼,
271,北京市朝阳区左家庄幼儿园,61幼儿园,64648930,北京市朝阳区左家庄北里31号楼,
272,北京市朝阳区阳光幼儿园,61幼儿园,84954243,北京市朝阳区来广营乡新生村朝来农艺园内,
273,北京首都机场物业管理有限公司幼教中心二幼,61幼儿园,64566652,北京市朝阳区首都机场南路西里23号楼,
274,北京市汇佳幼儿园,61幼儿园,64248356,北京市朝阳区安华西里二区2号楼,
275,北京市朝阳区启明东润双语幼儿园,61幼儿园,64374974,北京市朝阳区南十里居39号,
276,北京市朝阳区陶乐园托幼中心,61幼儿园,64334759,北京市朝阳区酒仙桥驼房营南里东北郊粮库宿舍院内,
277,北京市朝阳区石佛营幼儿园,61幼儿园,85816363-8021,北京市朝阳区石佛营西里4号院,
278,北京市朝阳区新世纪幼儿园,61幼儿园,65005550,北京市朝阳区呼家楼新街大院16号,
279,北京市朝阳区卧龙幼儿园,61幼儿园,64718873,北京市朝阳区望京南湖东园222号,
280,北京市朝阳区枣营幼儿园,61幼儿园,65917384,北京市朝阳区枣营北里26号,
281,北京市朝阳区三里屯幼儿园,61幼儿园,65510877,北京市朝阳区朝外大街吉庆里3号楼,
283,北京市朝阳区新源里幼儿园,61幼儿园,64662895,北京市朝阳区新源里12号,
284,北京市朝阳区亚运村第二幼儿园,61幼儿园,64976216,北京市朝阳区安慧里一区7号楼,
285,中国农业机械化科学研究院幼儿园,61幼儿园,64882359,北京市朝阳区北沙滩1号,
286,北京市朝阳区安贞街道中心幼儿园,61幼儿园,64412614,北京市朝阳区安贞西里二区18号楼,
287,北京市朝阳区香河园街道中心幼儿园,61幼儿园,64669310,北京市朝阳区柳芳北里7号楼,
288,北京市朝阳区亚运村中心幼儿园,61幼儿园,64963722,北京市朝阳区亚运村安苑北里12号楼,
289,北京市朝阳区唐纳朝来幼儿园,61幼儿园,51665573,北京市朝阳区朝来绿色家园来春园34号,
291,北京市朝阳区幸福泉北苑幼儿园,61幼儿园,84961463,北京市朝阳区北苑家园绣菊园2号楼,
292,北京市朝阳区双桥幼儿园,61幼儿园,85391792,北京市朝阳区双桥东路6号井小区,
294,北京市朝阳区南磨房乡幼儿园,61幼儿园,67314197,北京市朝阳区平乐园小区210楼,
295,北京市朝阳区人民政府机关幼儿园,61幼儿园,65094853,北京市朝阳区雅宝里十一号楼,
296,北京市朝阳区美格双语幼儿园,61幼儿园,84832892,北京市朝阳区北四环东路108号千鹤家园8号楼,
297,北京市朝阳区北方之星民族幼儿园,62独立设置的少数民族幼儿园,65480760,北京市朝阳区常营乡民族园B区70号楼,
298,北京市朝阳区甘露艺术幼儿园,61幼儿园,85779094,北京市朝阳区甘露园南里一区四号楼,
299,北京市朝阳区幸福天使幼儿园,61幼儿园,64150507,北京市朝阳区幸福二村29号楼,
300,北京市朝阳区美真幼儿园,61幼儿园,65763977,北京市朝阳区管庄西里20号,
301,北京市刘诗昆音乐艺术幼儿园,61幼儿园,64715009,北京市朝阳区望京南湖东园一区111号,
302,北京市朝阳区百年嘉华幼儿园,61幼儿园,87517762,北京市朝阳区百子湾家园403号,
303,北京市朝阳区向日葵艺术幼儿园,61幼儿园,65585889,北京市朝阳区通惠家园E-11楼,
304,北京市朝阳区秀园幼儿园,61幼儿园,64913602,北京市朝阳区安慧北里秀园19楼,
305,北京市朝阳区宜宝双语幼儿园,61幼儿园,58293988,北京市朝阳区南十里居41号院4号楼,
306,北京市朝阳区合生罗马幼儿园,61幼儿园,58627831,北京市朝阳区朝阳北路107号院28号楼,
308,北京市朝阳区双叶幼稚园,61幼儿园,65074633,北京市朝阳区甜水园东里43号,
309,北京市朝阳区小天使日托中心,61幼儿园,58766760,北京市朝阳区富力城C区11号101,
310,北京市朝阳区红黄蓝幼儿园,61幼儿园,59679343,北京市朝阳区通惠家园惠泽园7号楼,
311,北京蓝岛大厦幼儿园,61幼儿园,65062601,北京市朝阳区呼家楼北街6号楼西侧,
312,北京市朝阳区新源里第二幼儿园,61幼儿园,64662142,北京市朝阳区三元里北小街7号楼,
313,北京市朝阳区惠新里幼儿园,61幼儿园,64941905,北京市朝阳区惠新里230楼,
314,北京市朝阳区凯尔宝宝婴幼园,61幼儿园,84598344,北京市朝阳区驼房营南路2号院23号楼,
315,北京市朝阳区水碓北里幼儿园,61幼儿园,85978817,北京市朝阳区水碓北里10号楼,
316,北京市朝阳区双井中心幼儿园,61幼儿园,67760176,北京市朝阳区百子湾16号百子园19号楼,
317,北京市朝阳区金雁幼儿园,61幼儿园,67718861,北京市朝阳区垂杨柳中里14号楼,
318,北京市朝阳区春宇幼儿园,61幼儿园,67312697,北京市朝阳区磨房北里127楼,
319,上海烟草集团北京卷烟厂幼儿园,61幼儿园,65762922,北京市朝阳区管庄西里42号,
320,北京市朝阳区小牛津双语才艺幼儿园,61幼儿园,87311098,北京市朝阳区松榆里南新园小区六号楼,
321,北京市朝阳区红黄蓝中灿苑幼儿园,61幼儿园,84804511,北京市朝阳区安立路58号院,
322,北京市朝阳区奥园幼儿园,61幼儿园,52508663,北京市朝阳区东坝中路京奥家园611号楼,
323,北京市朝阳区为明实验幼儿园,61幼儿园,82721413,北京市朝阳区林萃西里19号楼,
324,北京市朝阳区立城苑小金星幼儿园,61幼儿园,84842485,北京市朝阳区立城苑8号楼,
325,北京市朝阳区东方子楹双语幼儿园,61幼儿园,65720166,北京市朝阳区双桥通惠南街水郡长安1号院17号楼,
326,北京师范大学实验幼儿园,61幼儿园,51200953,北京市朝阳区东坝中路奥林匹克花园小区内,
327,北京市朝阳区金蓓蕾幼儿园,61幼儿园,65459228,北京市朝阳区朝新嘉园东里五区17号,
328,北京市朝阳区世纪阳光幼儿园,61幼儿园,59640928,北京市朝阳区豆各庄乡黄厂南里1号院富力又一城18号楼,
329,北京市朝阳区新园双语幼儿园,61幼儿园,58761319,北京市朝阳区广渠门外大街三号院4号楼,
330,北京市朝阳区培新幼儿园,61幼儿园,67633052,北京市朝阳区小红门乡龙爪树南里304号,
331,北京市朝阳区十八里店乡幼儿园,61幼儿园,67473299,北京市朝阳区十八里店乡政府后,
332,北京市朝阳区十八里店乡西直河村东明幼儿园,61幼儿园,67369515,北京市朝阳区十八里店乡西直河村,
333,北京市朝阳区王四营乡幼儿园,61幼儿园,67200766,北京市朝阳区王四营乡政府北侧,
334,北京市朝阳区黑庄户乡人民政府中心幼儿园,61幼儿园,85385716,北京市朝阳区黑庄户乡黑庄户村,
335,北京市丰台区第一幼儿园,61幼儿园,63894793,北京市丰台区东大街27号,
336,北京市丰台区长辛店第一幼儿园,61幼儿园,83876687,北京市丰台区长辛店曹家口26号,
337,北京市丰台区蒲黄榆第一幼儿园,61幼儿园,67625296,北京市丰台区蒲黄榆三里甲3号,
338,北京市丰台区嘉园第一幼儿园,61幼儿园,67532807,北京市丰台区嘉园二里25号,
339,北京市丰台区蒲黄榆第二幼儿园,61幼儿园,67622340,北京市丰台区蒲安里8号楼,
340,北京市丰台区芳庄第三幼儿园,61幼儿园,67644688,北京市丰台区方庄芳城园一区8号楼,
341,北京市丰台区东罗园幼儿园,61幼儿园,67216759,北京市丰台区赵公口小区一号楼,
342,北京市丰台区芳庄第二幼儿园,61幼儿园,63765271,北京市丰台区方庄小区芳星园三区二十二号楼,
344,北京市丰台区南苑教工幼儿园,61幼儿园,67991753,北京市丰台区南苑东长街12号,
345,北京市丰台区第二幼儿园,61幼儿园,63822181,北京市丰台区丰台北路望园东里8号楼,
346,北京市丰台区方庄第一幼儿园,61幼儿园,67699664,北京市丰台区方庄芳古园一区16号,
347,北京市丰台区樊家村教工幼儿园,61幼儿园,83684187,北京市丰台区芳菲路88号院12号楼,
348,北京二七车辆厂幼儿园,61幼儿园,83804570,北京市丰台区张郭庄南路甲1号,
349,北京市丰台区群英幼儿园,61幼儿园,67220618,北京市丰台区西罗园三区10号楼,
350,北京市南厢物资经营公司托儿所,61幼儿园,67672920,北京市丰台区东铁营横七条44号院,
351,北京市环球橡胶厂幼儿园,61幼儿园,67247632,北京市丰台区永外海慧寺1号,
352,北京市丰台区第五幼儿园,61幼儿园,63712242,北京市丰台区韩庄子东里一号,
355,北京市丰台区实验幼儿园,61幼儿园,67652880,北京市丰台区方庄芳群园二区十号楼,
359,北京市丰台区太平桥东里幼儿园,61幼儿园,63484711,北京市丰台区太平桥东里20号院,
360,北京市丰台区第三幼儿园,61幼儿园,63894598,北京市丰台区五里店南里29号楼,
361,北京市丰台区第四幼儿园,61幼儿园,83720180,北京市丰台区桥南造甲南里17号,
362,北京二七机车厂托儿所,61幼儿园,83306612,北京市丰台区长辛店崔村一里十一号,
365,北京市丰台区卫生局幼儿园,61幼儿园,67628836,北京市丰台区芳星园三区28号楼,
369,北京市丰台区幼师附属实验艺术幼儿园,61幼儿园,67961109,北京市丰台区南苑北里1区7号楼,
370,北京市丰台区芳群第二幼儿园,61幼儿园,67638316,北京市丰台区方庄芳群园四区十号,
372,芳星第一幼儿园,61幼儿园,67638297,北京市丰台区方庄小区芳星园二区16号楼,
373,北京市丰台区第六幼儿园,61幼儿园,63853303,北京市丰台区丰台正阳小区7号楼,
374,北京市丰台区大红门街道办事处东楼幼儿园,61幼儿园,87271525,北京市丰台区大红门西里28号,
375,北京市丰台区镇正阳幼儿园,61幼儿园,63718494,北京市丰台区丰台镇桥南正阳头条5号,
376,北京市丰台区卢沟桥街道办事处五里店幼儿园,61幼儿园,63817685,北京市丰台区五里店南里小区17号楼,
377,北京市丰台区南苑镇新开路幼儿园,61幼儿园,67991307,北京市丰台区南苑镇新开路头道街16号,
378,北京市丰台区宛平幼儿园,61幼儿园,83214743,北京市丰台区晓月苑小区垂虹街3号,
379,北京市丰台区北大地西区幼儿园,61幼儿园,63864382,北京市丰台区北大地一里14栋,
380,北京市丰台区青塔第二幼儿园,61幼儿园,68676040,北京市丰台区青塔小区秀园7号,
381,北京市丰台区阳光起点幼儿园,61幼儿园,87259975,北京市丰台区南三环石榴园北里24号,
382,北京市丰台区新发地农工商联合公司中心幼儿,61幼儿园,67928075,北京市丰台区汉龙南站京开路78号,
383,北京市丰台区黄土岗乡中心幼儿园,61幼儿园,83608172,北京市丰台区黄土岗271号,
384,北京市丰台区西罗园第二幼儿园,61幼儿园,67228132,北京市丰台区西罗园海户西里五区7号托幼楼,
385,北京市邮政管理局海慧寺幼儿园,61幼儿园,67243028,北京市丰台区南顶村44号楼邮局宿舍院内,
386,北京市丰台区草桥幼儿园,61幼儿园,87584713,北京市丰台区草桥欣园一区三号楼,
387,北京市丰台区大井幼儿园,61幼儿园,83696505,北京市丰台区田各庄村133号,
388,北京市丰台区岳各庄幼儿园,61幼儿园,83668688,北京市丰台区岳各庄543号,
389,北京市丰台区南苑乡西铁营幼儿园,61幼儿园,63587323,北京市丰台区右安门外中顶村255号,
390,北京市丰台区东管头幼儿园,61幼儿园,63309331,北京市丰台区卢沟桥乡东管头水头庄258号,
391,北京市丰台区西罗园幼儿园,61幼儿园,67227202,北京市丰台区洋桥北里32号,
392,北京市丰台区卢沟桥街道第二幼儿园,61幼儿园,68671451,北京市丰台区大成里居住区蔚园15楼北门,
394,北京市丰台区榆树庄园艺术幼儿园,61幼儿园,83602596,北京市丰台区人民村152号,
395,北京市丰台区三路居幼儿园,61幼儿园,83062326,北京市丰台区丽泽路（临）27号,
396,北京市丰台区芳茹双语艺术幼儿园,61幼儿园,67544482,北京市丰台区角门小区东里7号楼西侧,
397,北京市丰台区金贝德实验幼儿园,61幼儿园,67994299,北京市丰台区和义东里一区一号院,
398,北京市丰台区笑笑幼教集团南洋之星幼儿园,61幼儿园,67509369,北京市丰台区马家堡角门南华小区内,
399,北京市丰台区红黄蓝多元智能实验幼儿园,61幼儿园,83528183,北京市丰台区右安门外开阳里1区6号楼,
400,北京市丰台区育英幼儿园,61幼儿园,67210212,北京市丰台区洋桥西里33号,
401,北京市星桥幼儿园,61幼儿园,83292374,北京市丰台区大瓦窑349号,
402,北京市丰台区嘉萌实验艺术幼儿园,61幼儿园,83393986,北京市丰台区云岗南区西里41号楼南侧,
403,北京市丰台区明悦峰景双语幼儿园,61幼儿园,63878035,北京市丰台区青塔西路58号院31号楼,
404,北京市丰台区美格双语幼儿园,61幼儿园,63622310,北京市丰台区万年花城万芳园一区6号楼,
405,北京市丰台区花乡郭公庄幼儿园,61幼儿园,83704884,北京市丰台区郭公庄村866号,
406,北京航天华盛幼儿园,61幼儿园,68376265,北京市丰台区云岗南区西里22号,
407,北京市丰台区翩翩艺术幼儿园,61幼儿园,87898728,北京市丰台区大红门建欣园小区三里15号楼,
408,北京市丰台区嘉园实验艺术幼儿园,61幼儿园,67534412,北京市丰台区嘉园二里34号楼,
409,北京市丰台区长辛店大街幼儿园,61幼儿园,83876295,北京市丰台区长辛店大街100号,
410,北京市丰台区卢沟桥幼儿园,61幼儿园,83896138,北京市丰台区卢沟桥晓月中路8号,
411,北京市丰台怡海幼儿园,61幼儿园,63743220,北京市丰台区南四环西路129号,
412,北京北方车辆集团有限公司幼儿园,61幼儿园,83807200,北京市丰台区朱家坟2里12号,
413,北京市北方之星艺术幼儿园,61幼儿园,63053279,北京市丰台区右安门外玉林小区一区五号楼,
415,北京开发红黄蓝双语幼儿园,61幼儿园,87643052,北京市丰台区方庄紫芳园二区7号楼,
417,北京市丰台区真爱幼儿园,61幼儿园,87594150,北京市丰台区西马场南里二区18号楼,
418,八一电影制片厂幼儿园,61幼儿园,66824742,北京市丰台区六里桥北里甲1号,
419,北京市丰台区花乡白盆窑村中心幼儿园,61幼儿园,83793384,北京市丰台区花乡白盆窑6号,
420,北京市丰台区大红门幼儿园,61幼儿园,67266318,北京市丰台区大红门东前街48号,
421,北京市丰台区分中寺幼儿园,61幼儿园,67659256,北京市丰台区左安门外分中寺,
422,北京市丰台区汇佳实验幼儿园,61幼儿园,67685252,北京市丰台区方庄小区方古园二区6号楼,
423,北京市丰台区宝贝星河幼儿园,61幼儿园,67526527,北京市丰台区北甲地路6号院玺萌丽苑内,
424,北京市丰台区雅瀚艺术幼儿园,61幼儿园,67504980,北京市丰台区草桥欣园三区11号楼,
425,北京育强体育才艺幼儿园,61幼儿园,87645009,北京市丰台区成寿寺路四方景园二区7号楼,
426,北京市丰台区立杰小红帽艺术幼儿园,61幼儿园,83623548,北京市丰台区丰葆路富锦嘉园小区内,
427,北京市丰台区西罗园第一幼儿园,61幼儿园,67216393,北京市丰台区西罗园一区11号楼,
428,北京市丰台区靛厂幼儿园,61幼儿园,88247057,北京市丰台区靛厂村805号,
429,北京市丰台区首科双语传媒幼儿园,61幼儿园,63373506,北京市丰台区华源三里8号楼,
430,北京市丰台区看丹村中心幼儿园,61幼儿园,63728023,北京市丰台区花乡看丹村578号,
431,北京市丰台区嘉德双语幼儿园,61幼儿园,87568279,北京市丰台区嘉园三里15号楼,
432,北京欣宇幼儿园,61幼儿园,67563275,北京市丰台区西马场北里15号,
433,北京市丰台区人民政府机关幼儿园,61幼儿园,83656447,北京市丰台区北大街1号,
434,北京市丰台区环雅阳光双语幼儿园,61幼儿园,87560980,北京市丰台区马家堡西路28号院瑞丽江畔小区7号楼,
435,北京市丰台区小红帽艺术幼儿园,61幼儿园,68675150,北京市丰台区青塔小区大城里居住区芳园9号楼,
436,北京市丰台区西局幼儿园,61幼儿园,63893180,北京市丰台区卢沟桥乡西局幼儿园,
437,北京市丰台区英才幼儿园,61幼儿园,63850959,北京市丰台区西四环南路60号丰台花园内,
438,北京市丰台区意馨艺术幼儿园,61幼儿园,87686009,北京市丰台区东铁营宋家庄政馨园二区8号楼,
439,北京市丰台区东铁营办事处第二幼儿园,61幼儿园,67662829,北京市丰台区蒲黄榆四里13楼一层,
440,北京市丰台区高娃钢琴幼儿园,61幼儿园,68671703,北京市丰台区小屯路6号,
441,北京市丰台区星星天地幼儿园,61幼儿园,83824855,北京市丰台区丰管路一号院3号楼,
442,北京市丰台区小井幼儿园,61幼儿园,63843365,北京市丰台区小井村558号,
443,北京市丰台区方庄鹤立实验幼儿园,61幼儿园,67621163,北京市丰台区方庄芳古园一区11号楼,
444,北京市石景山区八角幼儿园,61幼儿园,68874744,北京市石景山区八角南路甲18号,
445,北京市石景山区灵童潜能开发幼稚园,61幼儿园,58974885,北京市石景山区玉泉路北临一号翠谷玉景苑15号楼,
446,北京市石景山区师范学校附属幼儿园,61幼儿园,68682877,北京市石景山区永乐小区甲42号院,
447,北京市石景山区方舟双语艺术幼儿园,61幼儿园,88798467,北京市石景山区西井路19号,
448,北京金色未来幼教中心首钢大地老山西里幼儿,61幼儿园,88297108,北京市石景山区首钢老山西里小区,
449,北京市石景山区实验幼儿园,61幼儿园,68843113,北京市石景山区八角北里小区,
450,北京市石景山区幼儿园,61幼儿园,68874902,北京市石景山区古城南里17号,
451,中国科学院高能物理研究所幼儿园,61幼儿园,88235964,北京市石景山区玉泉路19号乙,
452,北京市京源学校幼儿部,61幼儿园,68645864,北京市石景山区京原路10号,
453,北京市石景山区第二幼儿园,61幼儿园,68874643,北京市石景山区八角南路东街,
454,北京市石景山区瑞吉欧双语艺术幼儿园,61幼儿园,68822781,北京市石景山区八角南路47号,
456,北京金色未来幼教中心首钢大地老山东里幼儿,61幼儿园,88973110,北京市石景山区首钢老山东里小区,
457,首钢矿山街道居民管理委员会第二幼儿园,61幼儿园,0315-7713469,河北省迁安市首钢矿业公司滨河村,
458,首钢矿山街道居民管理委员会第三幼儿园,61幼儿园,0315-7713550,河北省迁安市首钢矿业公司鸽子湾,
459,首钢矿山街道居民管理委员会水厂托儿所,61幼儿园,0315-7714091,河北省迁安市首钢矿业公司水厂,
460,北京市石景山区新世纪幼儿园,61幼儿园,68626456,北京市石景山区京源路8区8号,
461,北京市石景山区八角北路幼儿园,61幼儿园,68876355,北京市石景山区八角北路甲18号,
462,北京特钢燕鼎金地幼教中心,61幼儿园,68872802,北京市石景山区八角北路特钢小区,
463,北京市石景山区希望之星幼儿园,61幼儿园,68654023,北京市石景山区吴庄重兴园小区,
464,北京市石景山区首钢大地现代幼儿园,61幼儿园,51725187,北京市石景山区黑石头现代生活小区,
465,北京金色未来幼教中心首钢大地苹果园幼儿园,61幼儿园,88742877,北京市石景山区苹果园大街151号,
466,古城地区民族幼儿园,62独立设置的少数民族幼儿园,68872073,北京市石景山区古城西路,
469,北京市石景山区第三幼儿园,61幼儿园,88798005,北京市石景山区海特花园小区,
470,北京市石景山区新世界国际幼儿园,61幼儿园,68663136-818,北京市石景山区石景山路2号,
471,北京金色未来幼教中心首钢大地古城幼儿园,61幼儿园,68872147,北京市石景山区古城小街15号,
472,北京金色未来幼教中心金苹果幼儿园,61幼儿园,68815812,北京市石景山区苹果园路七区16号,
473,北京金色未来幼教中心首钢大地八角幼儿园,61幼儿园,68874088,北京市石景山区古城南路10号,
474,北京金色未来幼教中心首钢大地模式口幼儿园,61幼儿园,88294056,北京市石景山区模式口南里小区,
476,北京金色未来幼教中心首钢大地金顶街幼儿园,61幼儿园,88723422,北京市石景山区金顶街五区,
477,北京市石景山区民办北方之星幼儿园,61幼儿园,68687989,北京市石景山区鲁谷东街20号,
478,北京市石景山区向阳农工商公司幼儿园,61幼儿园,68684485,北京市石景山区衙门口上后街,
480,北京市海淀区苏家坨镇中心幼儿园,61幼儿园,62455506,北京市海淀区苏家坨镇北安河村,
481,北京市海淀区西北旺屯佃村幼儿园,61幼儿园,51729820,北京市海淀区西北旺镇屯佃村,
482,北京市海淀区西北旺镇亮甲店村幼儿园,61幼儿园,51609261,北京市海淀区西北旺镇亮甲店村,
483,北京市海淀区西北旺镇西玉河村幼儿园,61幼儿园,62472477,北京市海淀区西北旺镇西玉河村,
484,北京市海淀区西北旺镇皇后店村幼儿园,61幼儿园,52781938,北京市海淀区西北旺镇皇后店村,
485,北京市海淀区四季青南平庄幼儿园,61幼儿园,88441226,北京市海淀区四季青南平庄122号,
486,中国农业大学东校区幼儿园,61幼儿园,62736981,北京市海淀区清华东路17号,
487,北京市海淀区苏家坨镇温馨幼儿园,61幼儿园,62486890,北京市海淀区苏家坨镇聂各庄村正街38号,
489,北京公交鸿运承幼教中心第三幼儿园,61幼儿园,62250744,北京市海淀区小西天电车公司宿舍内,
490,国务院机关事务管理局花园村幼儿园,61幼儿园,68421057,北京市海淀区增光路51号,
491,北京市海淀区温泉镇东埠头村幼儿园,61幼儿园,62482730,北京市海淀区温泉镇东埠头村,
492,北京市海淀区四季青香山幼儿园,61幼儿园,62590475,北京市海淀区香山四王府,
493,北京阳光儿童早期教育实验中心,61幼儿园,68255413,北京市海淀区翠微北里10号,
495,北京市海淀区苏家坨镇幼儿园,61幼儿园,62420337,北京市海淀区苏家坨镇A地块经济适用住房A3地块,
496,中国林业科学研究院幼儿园,61幼儿园,62889381,北京市海淀区颐和园后东小府1号,
497,北京市海淀区苏家坨镇苏三四村幼儿园,61幼儿园,62455127,北京市海淀区苏家坨村南区148号,
498,北京市六一幼儿院,61幼儿园,62881078,北京市海淀区青龙桥六间房一号,
499,北京有色金属研究总院幼儿园,61幼儿园,82241795,北京市海淀区新街口外大街3号,
501,北京市海淀区英才幼儿园,61幼儿园,62324145,北京市海淀区北四环中路志新村小区12号,
502,北京市海淀区启明华清幼儿园,61幼儿园,62656158,北京市海淀区五道口华清嘉园11号,
503,北京市农林科学院幼儿园,61幼儿园,51503333,北京市海淀区曙光中路农林科学院内,
504,北京交通大学幼儿园,61幼儿园,51685894,北京市海淀区上园村3号,
505,北京市海淀区红黄蓝多元智能实验幼儿园,61幼儿园,84804541,北京市海淀区花园北路35号,
506,北京语言大学幼儿园,61幼儿园,82303201,北京市海淀区学院路15号,
509,北京市海淀区海淀乡中心幼儿园,61幼儿园,62649705,北京市海淀区六郎庄园子里25号,
511,中国科学院第三幼儿园,61幼儿园,62552204,北京市海淀区中关村南一街2号,
512,中国科学院幼儿园,61幼儿园,82626068,北京市海淀区中关村北二条水清木华园小区七号楼,
513,北京市海淀区小星星双语艺术幼儿园,61幼儿园,62896558,北京市海淀区马连洼梅园小区1号,
514,北京市海淀区学院路街道展春园幼儿园,61幼儿园,62321510,北京市海淀区学院路街道展春园小区20号,
516,北京市海淀区小汉顿幼儿园,61幼儿园,82827507,北京市海淀区苏州街3号大河庄苑8号楼,
520,北京市海淀区中关村街道第一幼儿园,61幼儿园,62645157,北京市海淀区中关村北一街甲13楼一层,
521,北京市海淀区世纪新汇佳幼儿园,61幼儿园,88874145,北京市海淀区蓝靛厂西路3号,
523,北京市海淀区西北旺镇小牛坊村幼儿园,61幼儿园,82477152,北京市海淀区西北旺镇小牛坊村,
524,北京市海淀区西北旺镇东玉河村幼儿园,61幼儿园,62473655,北京市海淀区西北旺镇东玉河村,
525,北京市海淀区西北旺镇永丰屯村幼儿园,61幼儿园,51558910,北京市海淀区西北旺镇永丰屯村,
526,中国科学院第一幼儿园,61幼儿园,62553620,北京市海淀区中关村24楼旁,
529,中共中央办公厅警卫局万寿路幼儿园,61幼儿园,68151792,北京市海淀区万寿路甲5号2号院,
531,北京市立新学校幼儿园,61幼儿园,68311917,北京市海淀区阜成路甲3号,
532,北京市银河之星幼儿园,61幼儿园,88125984,北京市海淀区万寿路八宝庄252号,
533,首都师范大学幼儿教育中心,61幼儿园,68901271,北京市海淀区西三环北路105号,
534,北京市海淀区英才美丽园幼儿园,61幼儿园,88591809,北京市海淀区西四环五棵松路20号,
535,北京小天使美语幼儿园,61幼儿园,68719561,北京市海淀区车道沟南里小区,
536,北京邮电大学幼儿教育中心,61幼儿园,62282036,北京市海淀区西土城路10号,
537,北京市海淀区海淀街道厂洼幼儿园,61幼儿园,68417268,北京市海淀区厂洼小区5号楼西侧,
538,北京师范大学实验幼儿园西苑分园,61幼儿园,62853132,北京市海淀区西苑100号颐东苑小区内,
539,国防大学第一幼儿园,61幼儿园,66764009,北京市海淀区红山口甲三号国防大学院内,
541,北京市海淀区太阳幼儿园,61幼儿园,82112776,北京市海淀区大钟寺太阳园7号楼,
542,中国科学院第七幼儿园,61幼儿园,62839153,北京市海淀区马连洼街道天秀花园古月园内,
543,北京市世纪阳光幼儿园,61幼儿园,88507028,北京市海淀区板井路73号,
544,北京市海淀区四季青育红幼儿园,61幼儿园,68152796,北京市海淀区田村路162号,
545,北京市海淀区翠湖幼儿园,61幼儿园,62471402,北京市海淀区上庄镇政府北100米,
546,北京市二十一世纪实验幼儿园,61幼儿园,88115955,北京市海淀区恩济庄46号,
550,北京市清华洁华幼儿园,61幼儿园,62782354,北京市海淀区清华大学院内,
551,北京市海淀区人民政府机关幼儿园,61幼儿园,82673988,北京市海淀区知春东里14号,
552,北京五色土实验婴幼园,61幼儿园,68494880,北京市海淀区三里河路5号,
553,钢铁研究总院幼儿园,61幼儿园,62182886,北京市海淀区学院南路76号,
554,北京航空航天大学幼儿园,61幼儿园,82317163,北京市海淀区学院路37号,
555,北京市海淀区富力桃园幼儿园,61幼儿园,82962878,北京市海淀区西三旗建材东里富力桃园小区,
556,北京市海淀区四季青镇常青幼儿园,61幼儿园,88448142,北京市海淀区四季青镇东冉村443号,
557,中国气象局幼儿园,61幼儿园,68407039,北京市海淀区中关村南大街46号,
558,北京市海淀区现代艺术幼儿园,61幼儿园,82350613,北京市海淀区知春路罗庄西里七号,
560,北京市育龙幼儿园,61幼儿园,62345848,北京市海淀区清华东路东王庄小区7号楼,
561,北京市水务局幼儿园,61幼儿园,68529877,北京市海淀区玉渊潭公园内,
562,中国农业科学院幼儿园,61幼儿园,82109932,北京市海淀区中关村南大街12号,
566,北京市海淀区北太平庄街道威凯幼儿园,61幼儿园,62241397,北京市海淀区北太平庄红联南村3号,
568,中国人民大学幼儿园,61幼儿园,88892458,北京市海淀区蓝靛厂中路19号,
569,北京师范大学实验幼儿园,61幼儿园,58808129,北京市海淀区新街口外大街19号,
571,北京市海淀区恩济里幼儿园,61幼儿园,88129363,北京市海淀区恩济里小区10号,
572,北京市海淀区四季青镇北坞幼儿园,61幼儿园,88851912,北京市海淀区四季青茶棚路23号,
574,北京市海淀区凯尔宝宝婴幼园,61幼儿园,82909858,北京市海淀区西三旗花园二里11号楼,
577,北京市海淀区万寿路街道翠微幼儿园,61幼儿园,68225928,北京市海淀区翠微南里22号,
578,新华社机关事务管理局保育院,61幼儿园,63079513,北京市海淀区羊坊店路3号,
580,北京市海淀区紫竹院街道第二幼儿园,61幼儿园,88570238,北京市海淀区魏公村小区16号楼西侧,
581,北京育新实验幼儿园,61幼儿园,82906303,北京市海淀区西三旗育新花园22号,
582,北京市海淀区北太平庄街道蓟门里幼儿园,61幼儿园,62019223,北京市海淀区学院路蓟门里小区甲1号,
583,北京明天幼稚集团,61幼儿园,62055283,北京市海淀区塔院小区迎春园甲7号,
584,中国石油勘探开发研究院幼儿园,61幼儿园,83597343,北京市海淀区学院路20号,
585,北京大学幼教中心,61幼儿园,62751568,北京市海淀区燕东园26号院,
586,北京应用物理与计算数学研究所九一幼儿园,61幼儿园,62014411,北京市海淀区花园路一号,
587,北京市海淀区红缨幼儿园,61幼儿园,62855691,北京市海淀区农大北路百旺家苑内,
588,北京市海淀区二十一世纪实验幼儿园,61幼儿园,88455355,北京市海淀区曙光花园街望河园8号楼,
589,北京市海淀区本真双语艺术幼稚园,61幼儿园,62316650,北京市海淀区学院路二里庄小区,
593,北京市海淀区四季青兰靛厂幼儿园,61幼儿园,88432605,北京市海淀区四季青石佛寺甲100号,
594,北京理工后勤集团幼教中心,61幼儿园,68918241,北京市海淀区中关村南大街5号院,
595,北京林业大学幼儿园,61幼儿园,62338392,北京市海淀区清华东路35号,
596,北京市海淀区领秀硅谷凯尔宝宝婴幼园,61幼儿园,82748673,北京市海淀区西二旗中路6号院6号楼,
597,中国农业大学西校区幼儿园,61幼儿园,62733021,北京市海淀区圆明园西路3号院,
598,北京市未来之星实验幼儿园,61幼儿园,62397680,北京市海淀区学院路14号新区,
599,住房和城乡建设部幼儿园,61幼儿园,58933314,北京市海淀区三里河路9号院,
600,北京岭南幼儿园,61幼儿园,88140034,北京市海淀区恩济庄小区定慧东里34号楼,
602,北京市海淀区北部新区实验幼儿园,61幼儿园,51729713,北京市海淀区温泉镇白家疃西口,
603,北京市私立繁星实验幼儿园,61幼儿园,62911573,北京市海淀区清河小营阳光北里1号,
605,中国音乐学院附属艺术幼儿园,61幼儿园,88139185,北京市海淀区西八里庄北里15号,
607,国土资源部机关服务局幼儿园,61幼儿园,82322319,北京市海淀区学院路29号,
608,北京市海淀区万泉汇佳幼儿园,61幼儿园,82551751,北京市海淀区巴沟南路35号万泉新新家园内13号楼,
609,北京市海淀区羊坊店第一幼儿园,61幼儿园,63459315,北京市海淀区羊坊店铁道部宿舍103栋,
610,中央民族大学幼儿园,61幼儿园,68932925,北京市海淀区法华寺原址1号,
611,北京市海淀区博雅双语艺术幼儿园,61幼儿园,88571503,北京市海淀区魏公村街韦伯豪家园10号楼,
613,北京科技大学幼儿教育中心,61幼儿园,62991249,北京市海淀区清河宝盛西里26号楼,
615,北京市海淀区朝昭双语婴幼园,61幼儿园,82905897,北京市海淀区西三旗东路3号沁春家园小区,
616,北京市海淀区世纪汇佳幼儿园,61幼儿园,88595252,北京市海淀区昆明湖南路62号,
617,北京市海淀区中科幼教中关村实验幼儿园,61幼儿园,62582333,北京市海淀区中国科学院东南小区932号,
619,北京市海淀区青龙桥幼儿园,61幼儿园,62883012,北京市海淀区万寿山后身25号,
621,中国铁道科学研究院幼儿园,61幼儿园,51849471,北京市海淀区大柳树路2号,
622,北京馨星幼儿园,61幼儿园,82591682,北京市海淀区四季青香山南路,
623,北京大学医学部幼儿园,61幼儿园,82801332,北京市海淀区学院路38号,
625,北京市海淀区美和园幼儿园,61幼儿园,13501028276,北京市海淀区清河小营西路48号,
626,北京市海淀区颐慧佳园幼儿园,61幼儿园,13120057590,北京市海淀区颐慧佳园17号楼,
628,北京市海淀区温泉镇太舟坞村幼儿园,61幼儿园,62465037,北京市海淀区温泉镇太舟坞村,
629,北京市海淀区温泉镇白家疃中心幼儿园,61幼儿园,62454330,北京市海淀区温泉镇白家疃小学院内,
631,北京市门头沟区幼儿园,61幼儿园,69843196,北京市门头沟区新桥大街44号,
632,北京市新星幼儿园,61幼儿园,69832273,北京市门头沟区增产路12号,
633,北京京煤集团有限责任公司幼儿园,61幼儿园,69842461,北京市门头沟区黑山大街11号,
634,北京市门头沟区新世纪幼儿园,61幼儿园,61866939,北京市门头沟区滨河居住区1号,
635,中铁三局四公司北京市三家店幼儿园,61幼儿园,61818807,北京市门头沟区三家店华北路12号,
636,北京市门头沟区城子幼儿园,61幼儿园,69866416,北京市门头沟区城子中街16号,
637,北京市门头沟区东辛房幼儿园,61幼儿园,69842866,北京市门头沟区东辛房北后街30号,
638,北京市门头沟区博爱幼儿园,61幼儿园,69828014,北京市门头沟区龙门安全下街1号,
639,北京市门头沟区永定中心幼儿园,61幼儿园,69806511,北京市门头沟区永定镇冯村,
640,北京市门头沟区大台中心幼儿园,61幼儿园,61875054,北京市门头沟区大台路7号,
641,北京市门头沟区斋堂中心幼儿园,61幼儿园,69819668,北京市门头沟区斋堂镇东斋堂村,
642,北京市门头沟区启明星幼儿园,61幼儿园,51635178,北京市门头沟区三家店西街12号,
643,北京市门头沟区智慧摇篮幼儿园,61幼儿园,60805626,北京市门头沟区石龙工业区雅安路4号,
644,北京市门头沟区小海鸥幼儿园,61幼儿园,60805766,北京市门头沟区石龙工业区泰安路延长线1号,
645,北京市门头沟区王平幼儿园,61幼儿园,61859458,北京市门头沟区王平镇河北村,
646,北京市门头沟区中科幼教绿岛幼儿园,61幼儿园,69825908,北京市门头沟区绿岛家园,
647,北京市房山区良乡幼儿园,61幼儿园,69353716,北京市房山区拱辰街道办事处三街乔家胡同16号,
648,北京市房山区窦店镇阳光幼儿园,61幼儿园,69361271,北京市房山区窦店镇七里店村回归路4号,
649,北京市房山区十渡镇中心幼儿园,61幼儿园,61347354,北京市房山区十渡镇十渡村,
650,北京市房山区良乡镇中心幼儿园,61幼儿园,69376554,北京市房山区拱辰街道办事处罗府街79号,
651,北京市房山区小博士幼儿园,61幼儿园,69385609,北京市房山区拱辰街道办事处楸树街36号,
652,北京市房山区良乡镇黄辛庄幼儿园,61幼儿园,89359596,北京市房山区拱辰街道办事处黄辛庄村,
653,北京市房山区昊天幼儿园,61幼儿园,69383397,北京市房山区拱辰街道办事处昊天大街116号,
655,北京市房山区良乡双语实验幼儿园,61幼儿园,69376263,北京市房山区拱辰街道办事处文化路21号院,
656,北京市房山区良乡双语艺术幼儿园,61幼儿园,89364909,北京市房山区拱辰街道办事处隆曦园B区,
657,北京市房山区良乡镇新魅力早教园,61幼儿园,69353345,北京市房山区拱辰街道办事处良乡中路8号,
658,北京市房山区良乡镇新世纪童乐园,61幼儿园,69362657,北京市房山区拱辰街道办事处西北关村89号,
659,北京市房山区良乡镇爱贝双语第二幼儿园,61幼儿园,80391296,北京市房山区拱辰街道办事处松林路2号,
660,北京市房山区良乡镇东关启蒙幼儿园,61幼儿园,69375851,北京市房山区拱辰街道办事处东关村23号,
661,北京市房山区建人外语艺术幼儿园,61幼儿园,89366051,北京市房山区拱辰街道办事处行宫园小区行宫二里14-10,
662,北京市房山区窦店镇中心幼儿园,61幼儿园,69392095,北京市房山区窦店镇窦店村,
663,北京市房山区窦店镇交道幼儿园,61幼儿园,80316251,北京市房山区窦店镇交道二街,
664,北京市房山区窦店镇交道良友幼儿园,61幼儿园,80310565,北京市房山区窦店镇交道二街3区14号,
665,北京市房山区窦店镇可欣幼儿园,61幼儿园,69396773,北京市房山区窦店镇窦店村12农场112号,
666,北京市房山区窦店京南嘉园小博士双语幼儿园,61幼儿园,69390801,北京市房山区窦店镇京南嘉园小区1号楼,
667,北京市房山区窦店镇小叮当双语幼儿园,61幼儿园,69391271,北京市房山区窦店镇于庄村4区16号,
668,北京市房山区窦店镇好宝宝双语幼儿园,61幼儿园,80335846,北京市房山区窦店镇于庄村4区99号,
669,北京市房山区窦店镇爱心幼儿园,61幼儿园,69390369,北京市房山区窦店镇瓦窑头北街33号,
670,北京市房山区窦店镇芦村幼儿园,61幼儿园,69391271,北京市房山区窦店镇芦村,
671,北京金色童年艺术双语幼儿园,61幼儿园,69390857,北京市房山区窦店镇瓦窑头村东街一条4号,
672,北京市房山区窦店镇普安屯幼儿园,61幼儿园,80310822,北京市房山区窦店镇普安屯村太平北街23号,
673,北京市房山区窦店镇育英幼儿园,61幼儿园,69361271,北京市房山区窦店镇兴隆庄村2区29号,
674,北京市房山区窦店镇交道二街幼儿园,61幼儿园,80310543,北京市房山区窦店镇交道二街4区41号,
675,北京市房山区窦店镇友谊幼儿园,61幼儿园,80310545,北京市房山区窦店镇交道二街1区47号,
676,北京市房山区窦店镇春蕾幼儿园,61幼儿园,69398223,北京市房山区窦店镇下坡店村3区89号,
677,北京市房山区窦店镇北辰幼儿园,61幼儿园,86261071,北京市房山区窦店镇田家园小区,
678,北京市房山区窦店镇于庄村幼儿园,61幼儿园,80335827,北京市房山区窦店镇于庄村4区29号,
679,北京市房山区窦店镇西安庄幼儿园,61幼儿园,69391271,北京市房山区窦店镇西安庄村一区49号,
680,北京市房山区窦店镇兴隆庄良友幼儿园,61幼儿园,80310565,北京市房山区窦店镇兴隆庄村14号,
681,北京市房山区窦店镇蓓蕾幼儿园,61幼儿园,69390165,北京市房山区窦店镇田家园村1区24号,
682,北京市房山区史家营乡柳林水村学前班,69独立设置学前班,60319714,北京市房山区史家营乡柳林水村,
683,北京市房山区史家营乡青土涧村学前班,69独立设置学前班,60397028,北京市房山区史家营乡青土涧村,
684,北京市房山区史家营乡中心幼儿园,61幼儿园,60397791,北京市房山区史家营乡北涧村,
685,北京市房山区史家营乡杨林水村学前班,69独立设置学前班,60319720,北京市房山区史家营乡杨林水村,
686,北京市房山区霞云岭乡中心幼儿园,61幼儿园,60367959,北京市房山区霞云岭乡霞云岭村,
687,北京市房山区安琪尔美语幼儿园,61幼儿园,60346685,北京市房山区西潞街道办事处南尚岗村,
688,北京市房山区西潞园幼儿园,61幼儿园,89354115,北京市房山区西潞街道办事处西潞园小区三里9号,
689,北京市房山区小英才实验幼儿园,61幼儿园,89366326,北京市房山区西潞街道办事处太平庄小区西里,
690,北京爱贝艺术幼儿园,61幼儿园,89391345,北京市房山区西潞街道办事处北潞园北潞春E4号,
691,北京市房山区太平庄手风琴音乐艺术幼儿园,61幼儿园,89367951,北京市房山区西潞街道办事处太平庄村,
692,北京市房山区才艺OK幼儿园,61幼儿园,61355527,北京市房山区西潞街道办事处苏庄一里21号楼,
693,北京市房山区西潞街道太平庄心心幼儿园,61幼儿园,86501631,北京市房山区西潞街道办事处太平庄小区,
694,北京市房山区童欣幼儿园,61幼儿园,60143460,北京市房山区西潞街道办事处詹庄村,
695,北京市房山区西南幼儿园,61幼儿园,60346460,北京市房山区西潞街道办事处南尚岗村73号,
696,北京市房山区小天使英语艺术幼儿园,61幼儿园,89359012,北京市房山区良乡西潞街道办事处詹庄村,
697,北京市房山区金曙光早教乐园,61幼儿园,69365062,北京市房山区西潞街道办事处太平庄东里172号,
698,北京市房山区西潞街道办事处中心幼儿园,61幼儿园,60342531,北京市房山区西潞街道办事处佳士苑小区,
699,北京市房山区彩虹桥双语幼儿园,61幼儿园,89352723,北京市房山区西潞街道办事处安庄村,
700,北京市房山区东沿村金太阳幼儿园,61幼儿园,60342321,北京市房山区西潞街道办事处东沿村,
701,北京市房山区南窖乡中心幼儿园,61幼儿园,61305128,北京市房山区南窖乡南窖村,
702,北京市房山区大石窝镇中心幼儿园,61幼儿园,61383021,北京市房山区大石窝镇石窝村,
703,北京市房山区大安山乡中心幼儿园,61幼儿园,60372082,北京市房山区大安山乡大安山村3区55号,
704,中国原子能科学研究院幼儿园,61幼儿园,69357962,北京市房山区新镇街道办事处东平街,
705,北京市房山区城关街道办事处中心幼儿园,61幼儿园,89322995,北京市房山区城关街道办事处城关南路7号,
706,北京天之骄子智能开发幼儿园,61幼儿园,69315588,北京市房山区城关街道办事处城关西大街8号,
707,北京市房山区希望之星幼儿园,61幼儿园,69313850,北京市房山区城关街道办事处城关南大街153号,
708,北京市房山区三八幼儿园,61幼儿园,89323587,北京市房山区城关街道办事处福胜胡同,
709,北京邦本物业管理有限公司幼儿园,61幼儿园,69313201,北京市房山区城关街道办事处矿机路1号院,
710,北京市房山区城关街道办事处东街幼儿园,61幼儿园,89336785,北京市房山区城关街道办事处东街村柳林前街19号,
711,北京市房山区城关街道办事处小水滴幼儿园,61幼儿园,89330705,北京市房山区城关街道办事处北关村北新中路4号,
712,北京市房山区城关街道办事处北关幼儿园,61幼儿园,89323782,北京市房山区城关街道办事处青年北路87号,
713,北京市房山区阳光幼儿园,61幼儿园,69317725,北京市房山区城关街道办事处南关村新农街4号,
714,北京市房山区城关街道六一幼儿园,61幼儿园,89335074,北京市房山区城关街道办事处青年路35号,
715,北京市房山区城关街道办事处静明幼儿园,61幼儿园,89332985,北京市房山区城关街道办事处北关万宁桥西路5号,
716,北京市房山区少年宫附设幼儿园,61幼儿园,69327918,北京市房山区城关街道办事处东大街21号,
717,北京市房山区城关街道马各庄幼儿园,61幼儿园,89325289,北京市房山区城关街道办事处马各庄村2区1号,
718,北京市房山区城关街道hellobaby幼儿园,61幼儿园,89333608,北京市房山区城关街道办事处马各庄村一区148号,
719,北京市房山区城关街道太阳岛幼儿园,61幼儿园,69323168,北京市房山区城关街道办事处北市村670号,
720,北京市房山区城关街道北市幼儿园,61幼儿园,69323945,北京市房山区城关街道办事处北市村街北39号,
721,北京市房山区城关街道宏冠娇幼儿园,61幼儿园,81301864,北京市房山区城关街道办事处田各庄村中街199号,
722,北京市房山区城关街道顾册幼儿园,61幼儿园,69329003,北京市房山区城关街道办事处顾册村4区224号,
723,北京市房山区城关街道可爱宝贝幼儿园,61幼儿园,58468452,北京市房山区城关街道办事处城关青年北路30号,
724,北京成城众信教育培训中心,69独立设置学前班,69315929,北京市房山区城关街道办事处北大街营房胡同,
725,北京市房山区韩村河镇中心幼儿园,61幼儿园,80389836,北京市房山区韩村河镇韩村河村,
726,北京市房山区韩村河镇岳各庄中心幼儿园,61幼儿园,61312194,北京市房山区韩村河镇岳各庄村,
727,北京市房山区韩村河镇西东村幼儿园,61幼儿园,80387015,北京市房山区韩村河镇西东村,
728,北京市房山区韩村河镇东南章村幼儿园,61幼儿园,61320551,北京市房山区韩村河镇东南章村,
729,北京市房山区韩村河镇孤山口村幼儿园,61幼儿园,61314918,北京市房山区韩村河镇孤山口村,
730,北京市房山区韩村河镇欣悦幼儿园,61幼儿园,61314761,北京市房山区韩村河镇孤山口村,
731,北京市房山区韩村河镇尤家坟村幼儿园,61幼儿园,61312352,北京市房山区韩村河镇尤家坟村,
732,北京市房山区韩村河镇五侯村幼儿园,61幼儿园,61317167,北京市房山区韩村河镇五侯村,
733,北京市房山区韩村河镇育新幼儿园,61幼儿园,61316967,北京市房山区韩村河镇五侯村,
734,北京市房山区韩村河镇曹章村幼儿园,61幼儿园,80386885,北京市房山区韩村河镇曹章村,
735,北京市房山区韩村河镇希望艺术幼儿园,61幼儿园,80389303,北京市房山区韩村河镇潘庄村,
736,北京市房山区韩村河镇小次洛幼儿园,61幼儿园,80386296,北京市房山区韩村河镇小次洛村,
737,北京市房山区韩村河镇西营村幼儿园,61幼儿园,80387015,北京市房山区韩村河镇西营村,
738,北京市房山区韩村河镇西东汝芹幼儿园,61幼儿园,80389563,北京市房山区韩村河镇西东村,
739,北京市房山区韩村河镇岳各庄村幼儿园,61幼儿园,61311205,北京市房山区韩村河镇岳各庄村,
740,北京市房山区韩村河镇东周各庄村育鑫幼儿园,61幼儿园,61316236,北京市房山区韩村河镇东周各庄村,
741,北京市房山区韩村河镇西周各庄村幼儿园,61幼儿园,61316905,北京市房山区韩村河镇西周各庄村,
742,北京市房山区阎村镇金蓓蕾艺术幼儿园,61幼儿园,89317792,北京市房山区阎村镇大董村一里三号,
743,北京市房山区阎村镇小董村欣欣幼儿园,61幼儿园,89317792,北京市房山区阎村镇小董村,
744,北京市房山区阎村镇贝乐园艺术培训中心,61幼儿园,89318551,北京市房山区阎村镇开古庄村四里90号,
745,北京市房山区阎村镇童馨双语培训中心,61幼儿园,89318551,北京市房山区阎村镇大董村一里18号,
746,北京市房山区阎村镇天使之翼童学馆,61幼儿园,89318551,北京市房山区阎村镇张庄村,
747,北京王子岛英语幼儿园,61幼儿园,89313821,北京市房山区阎村镇紫园路20号,
748,北京市房山区阎村镇哆唻咪幼儿园,61幼儿园,80333928,北京市房山区阎村镇肖庄村,
749,北京市房山区阎村镇北坊幼儿园,61幼儿园,89318551,北京市房山区阎村镇北坊村,
750,北京市房山区阎村镇红苹果艺术幼儿园,61幼儿园,89318551,北京市房山区阎村镇大紫草坞村,
751,北京市房山区阎村镇希望幼儿园,61幼儿园,80333738,北京市房山区阎村镇小十三里村,
752,北京市房山区阎村镇爱心幼儿园,61幼儿园,89318551,北京市房山区阎村镇大十三里村,
753,北京市房山区阎村镇小星星幼儿园,61幼儿园,89318551,北京市房山区阎村镇后十三里村,
754,北京市房山区绿城培基双语幼儿园,61幼儿园,89318551,北京市房山区阎村镇紫园路18号,
755,北京市房山区阎村镇中心幼儿园,61幼儿园,81303292,北京市房山区阎村镇开古庄村,
756,北京市房山区青龙湖镇坨里幼儿园,61幼儿园,80376243,北京市房山区青龙湖镇坨里村,
757,北京市房山区张坊镇中心幼儿园,61幼儿园,61338191,北京市房山区张坊镇西白岱村,
758,北京市房山区张坊镇快乐小博士,61幼儿园,61339167,北京市房山区张坊镇张坊村中二区19号,
759,北京市房山区良乡镇东石羊幼儿园,61幼儿园,60333470,北京市房山区良乡地区办事处东石羊村,
760,北京市房山区良乡镇金太阳艺术园,61幼儿园,80357871,北京市房山区良乡地区办事处张谢村,
761,北京市房山区良乡镇小太阳幼儿园,61幼儿园,60333085,北京市房山区良乡地区办事处鲁村,
762,北京市房山区良乡镇牛牛幼儿园,61幼儿园,60333596,北京市房山区良乡地区办事处南庄子村,
763,北京市房山区良乡镇七彩阳光文化艺术幼儿园,61幼儿园,60333085,北京市房山区良乡地区办事处南庄子村,
764,北京市房山区良乡镇官道中心幼儿园,61幼儿园,60331761,北京市房山区良乡地区办事处官道黑古台村,
765,北京市房山区佛子庄乡中心幼儿园,61幼儿园,60360346,北京市房山区佛子庄乡陈家台村,
766,北京市房山区青龙湖镇中心幼儿园,61幼儿园,60320498,北京市房山区青龙湖镇豆各庄村,
767,北京市房山区青龙湖镇心心幼儿园,61幼儿园,60322331,北京市房山区青龙湖镇果各庄村,
768,北京市房山区青龙湖镇上万幼儿园,61幼儿园,58469872,北京市房山区青龙湖镇上万村,
769,北京市房山区青龙湖镇阳光双语幼儿园,61幼儿园,80379247,北京市房山区青龙湖镇石梯村,
770,北京市房山区河北镇中心幼儿园,61幼儿园,60371708,北京市房山区河北镇河南村,
771,北京市房山区蒲洼乡中心幼儿园,61幼儿园,61371673,北京市房山区蒲洼乡蒲洼村,
772,北京市房山区长沟镇幸福幼儿园,61幼儿园,61365251,北京市房山区长沟镇西长沟村,
773,北京市房山区长沟镇北正村幼儿园,61幼儿园,61365251,北京市房山区长沟镇北正村,
774,北京市房山区长沟镇东长沟村幼儿园,61幼儿园,61365251,北京市房山区长沟镇东长沟村,
775,北京市房山区长沟镇东甘池村幼儿园,61幼儿园,61365251,北京市房山区长沟镇东甘池村,
776,北京市房山区长沟镇北甘池幼儿园,61幼儿园,61365251,北京市房山区长沟镇北甘池村,
777,北京市房山区长沟镇中心幼儿园,61幼儿园,61366985,北京市房山区长沟镇西长沟村,
778,北京市房山区石楼镇新世春幼儿园,61幼儿园,89305392,北京市房山区石楼镇石楼村,
779,北京市房山区石楼镇中心幼儿园,61幼儿园,89306078,北京市房山区石楼镇石楼村,
780,北京市房山区长阳镇中心幼儿园,61幼儿园,60352586,北京市房山区长阳镇葫芦垡村,
781,北京市房山区长阳镇阳光宝贝幼儿园,61幼儿园,80358525,北京市房山区长阳镇稻田三村,
782,北京市房山区长阳镇碧波双语幼儿园,61幼儿园,80351553,北京市房山区长阳镇碧波园小区17号,
783,北京市房山区长阳镇大森林早教中心,61幼儿园,51135779,北京市房山区长阳镇碧桂园小区C区梧杖爱50号楼3单元102室,
784,北京市房山区长阳镇大宁山庄幼儿园,61幼儿园,80364701,北京市房山区长阳镇大宁山庄小区,
785,北京市房山区长阳镇启明星幼儿园,61幼儿园,60314891,北京市房山区长阳镇北广阳城村,
786,北京市房山区长阳镇小博士第一分园,61幼儿园,80366240,北京市房山区长阳镇西营村,
787,北京市房山区长阳镇慧博幼儿园,61幼儿园,60358209,北京市房山区长阳镇公议庄村,
788,北京市房山区长阳镇鹤立幼儿园,61幼儿园,80362257,北京市房山区长阳镇稻田村天泰新景小区25号楼,
789,北京市房山区长阳镇彩虹幼儿园,61幼儿园,51135708,北京市房山区长阳镇碧桂园A区B楼4单元201室,
790,北京市房山区长阳镇靠山居幼儿园,61幼儿园,80363674,北京市房山区长阳镇长韩路靠山居艺墅区11号,
791,北京市房山区磁家务驰墀幼儿园,61幼儿园,60313159,北京市房山区河北镇磁家务村,
792,北京市房山区河北镇檀木港村幼儿园,61幼儿园,60379228,北京市房山区河北镇檀木港村,
793,北京市房山区河北镇磁家务村苗苗幼儿园,61幼儿园,60311002,北京市房山区河北镇磁家务村,
794,北京市房山区琉璃河镇路村幼儿园,61幼儿园,80390559,北京市房山区琉璃河地区办事处路村,
795,北京市房山区琉璃河镇南召幼儿园,61幼儿园,80399175,北京市房山区琉璃河地区办事处西南召村4区64号,
796,北京市房山区琉璃河镇常舍幼儿园,61幼儿园,80398349,北京市房山区琉璃河地区办事处常舍村,
797,北京市房山区琉璃河镇务滋幼儿园,61幼儿园,80399457,北京市房山区琉璃河地区办事处务滋村,
798,北京市房山区琉璃河镇天云阳光幼儿园,61幼儿园,89382007,北京市房山区琉璃河地区办事处二街村,
799,北京市房山区琉璃河镇贾河幼儿园,61幼儿园,51105527,北京市房山区琉璃河地区办事处贾河村,
800,北京市房山区琉璃河镇东方育才幼儿园,61幼儿园,80302905,北京市房山区琉璃河地区办事处祖村,
801,北京市房山区琉璃河镇丽水弘恩双语幼儿园,61幼儿园,89383873,北京市房山区琉璃河地区办事处李庄村,
802,北京市房山区琉璃河镇小太阳艺术幼儿园,61幼儿园,89386258,北京市房山区琉璃河地区办事处二街村,
803,北京市房山区琉璃河镇中心幼儿园,61幼儿园,51137277,北京市房山区琉璃河地区办事处三街村1区1号,
804,北京市房山区琉璃河镇李庄幼儿园,61幼儿园,89386059,北京市房山区琉璃河地区办事处李庄村,
805,北京市房山区琉璃河镇二街幼儿园,61幼儿园,89387972,北京市房山区琉璃河地区办事处二街村,
806,北京市房山区琉璃河镇刘李店幼儿园,61幼儿园,61393129,北京市房山区琉璃河地区办事处刘李店村,
807,北京市房山区琉璃河镇英才幼儿园,61幼儿园,51105527,北京市房山区琉璃河地区办事处三街村,
808,北京市房山区琉璃河镇金硕果艺术幼儿园,61幼儿园,80390273,北京市房山区琉璃河地区办事处路村,
809,北京市房山区琉璃河镇世纪爱心幼儿园,61幼儿园,51105527,北京市房山区琉璃河地区办事处窑上村,
810,北京市房山区周口店镇中心幼儿园,61幼儿园,69301660,北京市房山区周口店地区办事处周口店大街南侧,
811,北京市房山区房山幼儿园,61幼儿园,69312938,北京市房山区城关街道办事处南大街32号,
812,北京市房山区大石窝镇南尚乐私办园,61幼儿园,61386035,北京市房山区大石窝镇南尚乐村,
813,北京市房山区大石窝镇北尚乐村私办园,61幼儿园,61387500,北京市房山区大石窝镇北尚乐村,
814,北京市房山区大石窝镇石窝村私办园,61幼儿园,61323568,北京市房山区大石窝镇石窝村,
815,北京市房山区大石窝镇高庄村私办园,61幼儿园,61382427,北京市房山区大石窝镇高庄村,
816,北京市房山区大石窝镇南尚乐小学学前班,69独立设置学前班,61386709,北京市房山区大石窝镇南尚乐村,
817,北京市房山区大石窝镇镇江营私办园,61幼儿园,61322499,北京市房山区大石窝镇镇江营村,
818,北京市房山区大石窝镇三岔幼儿园,61幼儿园,61389273,北京市房山区大石窝镇三岔村,
819,北京市房山区大石窝镇辛庄幼儿园,61幼儿园,61386518,北京市房山区大石窝镇辛庄村,
820,北京市房山区周口店博识幼儿园,69独立设置学前班,69303985,北京市房山区周口店地区办事处长沟峪村,
821,北京市房山区周口店幸福幼儿园,61幼儿园,69031674,北京市房山区周口店地区办事处瓦井村,
822,北京市房山区周口店阳光幼儿园,61幼儿园,69301674,北京市房山区周口店地区办事处瓦井村,
823,北京市房山区周口店花蕾幼儿园,61幼儿园,69301674,北京市房山区周口店地区办事处大韩继村,
824,北京市房山区周口店春天幼儿园,61幼儿园,69301674,北京市房山区周口店地区办事处周口店村,
825,北京市房山区周口店晓源幼儿园,61幼儿园,69301674,北京市房山区周口店地区办事处周口店村,
826,北京市房山区周口店云峰寺幼儿园,61幼儿园,69303275,北京市房山区周口店地区办事处云峰寺村,
827,北京市房山区周口店周口村幼儿园,61幼儿园,69301674,北京市房山区周口店地区办事处周口村,
828,北京市房山区周口店小水滴幼儿园,61幼儿园,69300690,北京市房山区周口店地区办事处良各庄村,
829,北京市燕山幼儿园,61幼儿园,81337750,北京市房山区燕山杏花西里32号,
830,北京市房山区燕山小天使幼儿园,61幼儿园,69335363,北京市房山区燕山东风羊耳峪西巷6号,
831,北京市房山区燕山东风幼儿园,61幼儿园,69335364,北京市房山区燕山东风南里6号,
832,北京市房山区燕山星城幼儿园,61幼儿园,69334360,北京市房山区燕化星城健德四里甲25号,
833,北京市房山区燕山阳光幼儿园,61幼儿园,69344083,北京市房山区燕山迎风五里26号,
834,北京市房山区燕山迎风幼儿园,61幼儿园,69344416,北京市房山区燕山迎风二里16号,
835,北京市房山区燕山向阳幼儿园,61幼儿园,69341568,北京市房山区燕山向阳里14号,
836,北京市通州区幼儿园,61幼儿园,69544030,北京市通州区中山街36号,
837,北京市通州区新城东里幼儿园,61幼儿园,69545284,北京市通州区西营前街25号,
838,北京市通州区教工幼儿园,61幼儿园,69544818,北京市通州区后南仓甲35号,
839,北京市通州区民族幼儿园,62独立设置的少数民族幼儿园,69542233,北京市通州区芙蓉路300号,
840,北京市通州区如意中心幼儿园,61幼儿园,69541360,北京市通州区如意园小区甲12号,
841,北京市通州区新通幼儿园,61幼儿园,69510646,北京市通州区梨园西里21号,
842,北京市通州区西集镇西集中心幼儿园,61幼儿园,61511846,北京市通州区西集镇西集村,
843,北京市通州区漷县镇漷县中心幼儿园,61幼儿园,80588440,北京市通州区漷县镇漷县村,
844,北京市通州区马驹桥镇马驹桥中心幼儿园,61幼儿园,60599598,北京市通州区马驹桥镇西店村,
845,北京市通州区马驹桥镇大杜社中心幼儿园,61幼儿园,61586059,北京市通州区马驹桥镇大杜社村,
846,北京市通州区张家湾镇张家湾中心幼儿园,61幼儿园,69573184,北京市通州区张家湾镇西定福庄丙51号,
847,北京市通州区张家湾镇牛堡屯中心幼儿园,61幼儿园,69582371,北京市通州区张家湾镇牛堡屯中街村,
848,北京市通州区宋庄镇中心幼儿园,61幼儿园,69596550,北京市通州区宋庄镇宋庄村,
849,北京市通州区宋庄镇邢各庄幼儿园,61幼儿园,69597879,北京市通州区宋庄镇邢各庄村,
850,北京市通州区宋庄镇大邓幼儿园,61幼儿园,69595160,北京市通州区宋庄镇大邓村,
851,北京市通州区宋庄镇任庄幼儿园,61幼儿园,69596550,北京市通州区宋庄镇任庄村,
852,北京市通州区宋庄镇徐辛庄中心幼儿园,61幼儿园,89567104,北京市通州区宋庄镇徐辛庄村,
853,北京市通州区宋庄镇葛渠幼儿园,61幼儿园,89559899,北京市通州区宋庄镇葛渠村,
854,北京市通州区宋庄镇尹各庄幼儿园,61幼儿园,89552251,北京市通州区宋庄镇尹各庄村,
855,北京市通州区宋庄镇沟渠庄幼儿园,61幼儿园,69556550,北京市通州区宋庄镇沟渠庄村,
856,北京市通州区宋庄镇寨辛庄幼儿园,61幼儿园,89559266,北京市通州区宋庄镇寨辛庄村,
857,北京市通州区潞城镇中心幼儿园,61幼儿园,89583867,北京市通州区潞城镇胡各庄村,
858,北京市通州区潞城镇宝宝乐幼儿园,61幼儿园,89591427,北京市通州区潞城镇孙各庄村,
859,北京市通州区潞城镇郝家府幼儿园,61幼儿园,52110116,北京市通州区潞城镇郝家府村,
860,北京市通州区潞城镇武窑幼儿园,61幼儿园,52119714,北京市通州区潞城镇武窑村,
861,北京市通州区漷县镇靛庄幼儿园,61幼儿园,80589620,北京市通州区漷县镇靛庄村,
862,北京市通州区漷县镇西黄垡幼儿园,61幼儿园,80587780,北京市通州区漷县镇西黄垡村,
863,北京市通州区漷县镇高庄幼儿园,61幼儿园,80585523,北京市通州区漷县镇高庄村,
864,北京市通州区漷县镇马头幼儿园,61幼儿园,52337760,北京市通州区漷县镇马头村,
865,北京市通州区漷县镇吴营幼儿园,61幼儿园,80580493,北京市通州区漷县镇吴营村,
866,北京市通州区漷县镇黄厂铺幼儿园,61幼儿园,69564035,北京市通州区漷县镇黄厂铺村,
867,北京市通州区漷县镇东鲁村一园,61幼儿园,69560733,北京市通州区漷县镇东鲁村,
868,北京市通州区漷县镇东鲁二园,61幼儿园,69567959,北京市通州区漷县镇东鲁村,
869,北京市通州区漷县镇北寺一园,61幼儿园,80571686,北京市通州区漷县镇北堤寺村,
870,北京市通州区漷县镇北寺二园,61幼儿园,69565937,北京市通州区漷县镇北堤寺村,
871,北京市通州区漷县镇漷县二园,61幼儿园,80588750,北京市通州区漷县镇漷县村,
872,北京市通州区漷县镇曹庄幼儿园,61幼儿园,80561893,北京市通州区漷县镇曹庄村,
873,北京市通州区漷县镇觅子店幼儿园,61幼儿园,80566932,北京市通州区漷县镇觅子店村,
874,北京市通州区漷县镇小屯幼儿园,61幼儿园,80503705,北京市通州区漷县镇小屯村,
875,北京市通州区漷县镇侯黄庄幼儿园,61幼儿园,80563771,北京市通州区漷县镇侯黄庄村,
876,北京市通州区台湖镇中心幼儿园,61幼儿园,61531059,北京市通州区台湖镇台湖村,
877,北京市通州区永顺镇中心幼儿园,61幼儿园,81564281,北京市通州区永顺镇杨庄村,
878,北京市通州区永顺镇小潞邑幼儿园,61幼儿园,81564281,北京市通州区永顺镇小潞邑村,
879,北京市通州区梨园地区中心幼儿园,61幼儿园,81529807,北京市通州区梨园镇群芳园小区1号,
880,北京市通州区梨园地区扬洼幼儿园,61幼儿园,60527505,北京市通州区梨园镇杨家洼村,
881,北京市通州区梨园镇大稿村幼儿园,61幼儿园,81563179,北京市通州区梨园镇大稿村,
882,北京市通州区情智幼儿园,61幼儿园,60519296,北京市通州区通惠南路1号,
883,北京市双鹿艺术幼儿园,61幼儿园,69545541,北京市通州区玉桥西路1号,
884,北京市通州区玉桥街道运河幼儿园,61幼儿园,81528111,北京市通州区葛布店北里8号,
885,中国科学院印刷厂幼儿园,61幼儿园,60533411,北京市通州区北苑南路63号,
886,北京七色光艺术幼儿园,61幼儿园,81579191,北京市通州区永顺镇新建工业区5号,
887,北京市运乔蓝天幼儿园,61幼儿园,81591155,北京市通州区运河大街乔庄东区2号,
888,北京市通州区天使宝贝双语艺术幼儿园,61幼儿园,80855170,北京市通州区通胡大街25号,
889,北京市通州区贝乐康双语艺术幼儿园,61幼儿园,81568844,北京市通州区梨园镇半壁店大街10号,
890,通州区春蕾双语艺术幼儿园,61幼儿园,81510266,北京市通州区艺苑小区东里1号,
891,北京市通州区玉桥幼儿园,61幼儿园,81587114,北京市通州区玉桥北里47号,
892,北京市通州区新苗幼儿园,61幼儿园,89558599,北京市通州区永顺镇焦王庄村,
893,北京市通州区童乐幼儿园,61幼儿园,69545714,北京市通州区通惠南路29号,
894,北京市通州区瀚林华馨幼儿园,61幼儿园,69505829,北京市通州区台湖镇次渠大街19号,
895,北京市通州区东方幼儿园,61幼儿园,69546339,北京市通州区玉带河大街141号,
896,北京市通州区小脚丫幼儿园,61幼儿园,89529068,北京市通州区潞城镇三元村,
897,北京市通州区龙旺庄双语艺术幼儿园,61幼儿园,89595336,北京市通州区永顺镇龙旺庄村,
898,北京通州哈佛摇篮幼儿园,61幼儿园,89527785,北京市通州区通胡大街68号,
899,北京武夷大地幼儿园,61幼儿园,69546339,北京市通州区通胡大街68号,
900,北京市通州区芬芳幼儿园,61幼儿园,69546339,北京市通州区梨园镇砖厂村,
901,北京市通州区星河幼儿园,61幼儿园,81537959,北京市通州区玉桥西里70号,
902,北京市通州区运河宝宝双语艺术幼儿园,61幼儿园,80883815,北京市通州区永顺西街32号,
903,北京市通州区启智贝尔幼儿园,61幼儿园,81598268,北京市通州区玉桥东路58号,
904,北京通州天天双语艺术幼儿园,61幼儿园,80588786,北京市通州区漷县镇长陵营村商业广场B段,
905,北京市通州区小海豚双语艺术幼儿园,61幼儿园,89512389,北京市通州区潞苑南大街85号,
906,北京市通州区童心幼儿园,61幼儿园,60516183,北京市通州区永顺镇西马庄村,
907,北京市通州区淘乐思艺术幼儿园,61幼儿园,81573037,北京市通州区永顺镇果园路果园北区226号,
908,北京市通州区东旭英华双语艺术幼儿园,61幼儿园,86872673,北京市通州区梨园北街256号,
911,北京市昌平区中馥慧幼儿园,61幼儿园,81744538,北京市昌平区东小口镇和谐家园东二区北门,
912,北京市昌平区兴寿镇中心幼儿园,61幼儿园,61722939,北京市昌平区兴寿镇兴寿学校院内,
913,北京市昌平区马池口镇中心幼儿园,61幼儿园,60790522,北京市昌平区马池口镇下念头火车站西,
915,北京市昌平区幸福摇篮幼儿园,61幼儿园,81750355,北京市昌平区北七家镇燕丹村492号,
916,北京市平板玻璃工业公司幼儿园,61幼儿园,69776374,北京市昌平区南口镇新西广街玻璃公司家属院内,
917,北京市昌平区十三陵特区办事处幼儿园,61幼儿园,69715154,北京市昌平区城北街道东关二条8号楼特区宿舍,
918,北京市昌平区工业幼儿园,61幼儿园,69742271,北京市昌平区城北街道西环路11号,
919,北京市昌平区教工幼儿园,61幼儿园,89782027,北京市昌平区城北街道西环里小区,
920,北京市昌平区童星幼儿园,61幼儿园,89702007,北京市昌平区城北街道东环路妇女儿童活动中心,
921,北京市昌平区崔村镇中心幼儿园,61幼儿园,60721379,北京市昌平区崔村镇镇政府东侧200米,
922,北京市昌平区机关幼儿园,61幼儿园,69741046,北京市昌平区城北街道鼓楼南大街永安巷5号,
923,北京市昌平区长陵镇中心幼儿园,61幼儿园,60761067,北京市昌平区长陵镇景陵村,
924,北京市昌平区财贸幼儿园,61幼儿园,69708215,北京市昌平区城北街道八街大将军胡同2号,
925,北京市昌平区新世纪幼儿园,61幼儿园,81793398,北京市昌平区回龙观镇龙泽苑西区,
926,北京市昌平区沙河镇中心幼儿园,61幼儿园,80729077,北京市昌平区沙河镇西二村南河槽大街76号,
927,北京市昌平区青草地幼儿园,61幼儿园,80723378,北京市昌平区沙河镇北二村工商街156号,
929,中国政法大学幼儿园,61幼儿园,58909288,北京市昌平区城北街道府学路27号,
930,北京市昌平区二十一世纪实验幼儿园,61幼儿园,84819869,北京市昌平区东小口镇顶秀青溪25号楼,
931,北京保温瓶厂托儿所,61幼儿园,51014399,北京市昌平区南口镇东大街22号,
932,北京市昌平区优美双语幼儿园,61幼儿园,80757207,北京市昌平区德外二拨子路东北京时代文具公司院内,
933,北京市昌平区城北街道西关管区幼儿园,61幼儿园,69744167,北京市昌平区城北街道西关槐树巷,
934,北京市昌平区育龙幼儿园,61幼儿园,81733159,北京市昌平区回龙观镇龙跃苑一区17号,
935,北京市昌平区宏景艺术幼儿园,61幼儿园,89755733,北京市昌平区北七家镇温泉花园A12号,
936,北京市昌平区碧水庄园嘉洛德幼儿园,61幼儿园,80704298,北京市昌平区回龙观镇定福皇庄75号一期1-9,
937,国营北京市北郊农场幼儿园,61幼儿园,81794072,北京市昌平区回龙观镇北郊农场家属院内,
938,北京市北海昌房幼儿园,61幼儿园,69711640,北京市昌平区城北街道东关南里小区19号楼,
939,北京市昌平区南口镇前桃洼幼儿园,61幼儿园,69771368,北京市昌平区南口镇前桃洼村委会院内,
940,北京农学院后勤服务集团幼教中心,61幼儿园,80799109,北京市昌平区回龙观镇朱辛庄北京农学院,
942,北京市昌平启盼幼儿园,61幼儿园,60753582,北京市昌平区马池口镇上念头村红冶钢厂西侧200米处,
943,北京市昌平区小汤山镇中心幼儿园,61幼儿园,61712095,北京市昌平区小汤山镇大东流村222号,
944,北京昌平天一宝贝幼儿园,61幼儿园,89751111,北京市昌平区东小口镇龙锦苑东二区19号,
945,北京市昌平区回龙观镇中心幼儿园,61幼儿园,62711259,北京市昌平区回龙观镇南店新村西,
946,北京市昌平区北七家镇宏福苑幼儿园,61幼儿园,81781358,北京市昌平区北七家镇郑各庄村,
947,北京博苑实验幼儿园,61幼儿园,81790968,北京市昌平区回龙观镇龙花园东区甲11号,
949,北京市昌平区上苑中心小学幼儿园,61幼儿园,61707251,北京市昌平区兴寿镇东新城村东79号,
950,北京市昌平区苹果树幼儿园,61幼儿园,81751469,北京市昌平区北七家镇海德堡花园社区中心,
951,北京市昌平区沙河镇白各庄村幼儿园,61幼儿园,80726685,北京市昌平区沙河镇白各庄村,
952,北京市昌平区沙河镇西沙屯村幼儿园,61幼儿园,80761236,北京市昌平区沙河镇西沙屯村,
953,北京市昌平区沙河镇踩河新村幼儿园,61幼儿园,69732433,北京市昌平区沙河镇踩河新村,
954,北京市昌平区乌兰幼稚园,61幼儿园,89751421,北京市昌平区北七家镇平坊村7号,
955,北京市昌平区南邵镇中心幼儿园,61幼儿园,60733667,北京市昌平区南邵镇镇政府东200米,
956,北京市昌平区天通苑新起点幼儿园,61幼儿园,64123850,北京市昌平区东小口镇天通苑西二区八号楼,
957,北京昌平温莎双语幼儿园,61幼儿园,69756570,北京市昌平区北七家镇东沙各庄温哥华森林,
958,北京市昌平区南邵镇中心幼儿园张各庄分园,61幼儿园,60733667,北京市昌平区南邵镇张各庄村,
959,北京市昌平区南邵镇中心幼儿园营坊分园,61幼儿园,60733667,北京市昌平区南邵镇营坊村,
960,北京市昌平区南口镇中心幼儿园,61幼儿园,51013393,北京市昌平区南口镇道北中区267号,
961,北京市昌平区小脚丫幼儿园,61幼儿园,62843576,北京市昌平区回龙观镇金达园小区13号,
962,北京市昌平区东小口镇中心幼儿园,61幼儿园,84841415,北京市昌平区东小口镇中滩村,
963,北京市昌平区流村镇新建村幼儿园,61幼儿园,89771152,北京市昌平区流村镇新建村,
964,北京市昌平区流村镇古将村幼儿园,61幼儿园,89771144,北京市昌平区流村镇古将村,
965,北京市昌平区流村镇老峪沟中心幼儿园,61幼儿园,80192091,北京市昌平区流村镇老峪沟村,
966,北京市昌平区流村镇高崖口中心幼儿园,61幼儿园,89778191,北京市昌平区流村镇高崖口村,
967,北京市昌平区流村镇瓦窑村幼儿园,61幼儿园,89778502,北京市昌平区流村镇瓦窑村,
968,北京市昌平区流村镇西峰山村幼儿园,61幼儿园,89771750,北京市昌平区流村镇西峰山村,
969,北京市昌平区流村镇南流村幼儿园,61幼儿园,89771164,北京市昌平区流村镇南流村,
970,北京市昌平区流村镇北流村幼儿园,61幼儿园,89771513,北京市昌平区流村镇北流村,
971,北京市昌平区流村镇王峪村幼儿园,61幼儿园,89778856,北京市昌平区流村镇王峪村,
972,北京市昌平区百善镇吕各庄幼儿园,61幼儿园,61731456,北京市昌平区百善镇吕各庄村中,
973,北京市昌平区百善镇孟祖幼儿园,61幼儿园,61738937,北京市昌平区百善镇孟祖村南,
974,北京昌平汇佳幼儿园,61幼儿园,81716161,北京市昌平区回龙观镇文化居住区风雅园三区14号楼,
975,首钢生活服务管理中心沙河服务站幼儿园,61幼儿园,69731943,北京市昌平区沙河镇赴京门路甲7号,
976,北京昌平启聪幼儿园,61幼儿园,69752485,北京市昌平区北七家镇鲁疃村61号,
977,北京市昌平区小汤山镇大汤山村幼儿园,61幼儿园,61785411,北京市昌平区小汤山镇大汤山村,
978,北京市昌平区爱蕾幼儿园,61幼儿园,81720038,北京市昌平区回龙观镇龙锦苑四区,
979,北京市昌平区小汤山镇双兴苑幼儿园,61幼儿园,61782823,北京市昌平区小汤山镇小汤山村,
980,北京市昌平区小汤山镇尚信村幼儿园,61幼儿园,61785515,北京市昌平区小汤山镇尚信村,
981,北京市昌平区马池口镇西坨村幼儿园,61幼儿园,69733443,北京市昌平区马池口镇西坨村,
982,北京市昌平区马池口镇楼自庄村幼儿园,61幼儿园,69771456,北京市昌平区马池口镇楼自庄村,
983,北京市昌平区幸福童年双语幼儿园,61幼儿园,81733855,北京市昌平区回龙观镇文化居住区龙腾四区20号,
984,北京市昌平区幸福童年幼儿园,61幼儿园,81731925,北京市昌平区回龙观文化居住区龙腾六区16号,
985,北京昌平绿贝儿中英文幼稚园,61幼儿园,62716533,北京市昌平区回龙观镇龙博苑二区21号,
986,北京市昌平区十三陵镇中心幼儿园,61幼儿园,89705349,北京市昌平区十三陵镇大宫门村村东,
987,北京市昌平区回龙观红黄蓝幼儿园,61幼儿园,80748987,北京市昌平区回龙观镇龙跃苑东四区,
988,北京市昌平区童学园幼儿园,61幼儿园,81743958,北京市昌平区回龙观镇龙跃苑三区东门19号,
989,北京王府幼儿园,61幼儿园,81786146,北京市昌平区北七家镇王府街11号,
990,北京昌平奕青音乐幼儿园,61幼儿园,61745963,北京市昌平区东小口镇天通北苑二区甲38号楼,
991,北京市昌平区城北街道三街幼儿园,61幼儿园,69719124,北京市昌平区城北街道财神庙胡同1号,
992,北京市昌平区金奥经典艺术幼儿园,61幼儿园,80750598,北京市昌平区东小口镇小辛庄村西工业区,
993,北京市大兴区金枫阳光双语幼儿园,61幼儿园,87911145,北京市大兴区旧宫小红门宣颐家园内,
994,北京市大兴区第一幼儿园,61幼儿园,69252426,北京市大兴区兴业路西侧,
995,北京市大兴区第二幼儿园,61幼儿园,69242302,北京市大兴区黄村镇育才北巷2号,
996,北京市大兴区第三幼儿园,61幼儿园,69252455,北京市大兴区富强西里小区富华巷5号,
997,北京市大兴区第四幼儿园,61幼儿园,69255334,北京市大兴区清源西里小区,
998,北京市大兴区第五幼儿园,61幼儿园,69221952,北京市大兴区黄村镇兴丰大街红楼东巷,
999,北京市大兴区第六幼儿园,61幼儿园,69242613,北京市大兴区育才南巷,
1000,北京市大兴区民族幼儿园,62独立设置的少数民族幼儿园,69260861,北京市大兴区黄村中里23号,
1001,北京市大兴区第七幼儿园,61幼儿园,60294002,北京市大兴区双高路双高小区,
1002,北京市大兴区团河小学,61幼儿园,61299583,北京市大兴区团河苑小区内,
1003,北京市大兴区少年宫蓓蕾艺术园,61幼儿园,61215241,北京市大兴区黄村镇弘和北路1号,
1004,北京市大兴区第二小学,61幼儿园,61243944,北京市大兴区海子角东,
1005,北京市大兴区第八幼儿园,61幼儿园,69265627,北京市大兴区丽园B区,
1006,北京师范大学大兴附属小学,61幼儿园,60232365,北京市大兴区香园路香海园小区内,
1007,北京市大兴区快乐时光幼儿园,61幼儿园,59421779,北京市大兴区永华路1-1（兴政家园）,
1008,北京市大兴区黄村镇第一中心幼儿园,61幼儿园,69254706,北京市大兴区观音寺小区,
1009,北京市大兴区黄村镇第二中心幼儿园,61幼儿园,61232046,北京市大兴区黄村镇西芦城西大街87号,
1010,北京市大兴区小星星双语艺术幼儿园,61幼儿园,60268557,北京市大兴区郁花园一里甲28,
1012,北京市大兴区新安里幼儿园,61幼儿园,61290166,北京市大兴区新安里东区,
1013,北京市大兴区南希双语幼儿园,61幼儿园,69247582,北京市大兴区兴华南路5号怡兴园小区15号楼,
1014,北京市大兴区幸福泉翡翠城幼儿园,61幼儿园,60231677,北京市大兴区翡翠城西区香留园109号,
1015,北京市大兴区黄村镇天堂河小学,61幼儿园,60270919,北京市大兴区黄村镇天利路3号,
1016,北京市大兴区黄村镇第三中心小学,61幼儿园,61260170,北京市大兴区黄村镇邢各庄村,
1017,北京市大兴区十一建华实验幼儿园,61幼儿园,60239382,北京市大兴区顺驰领海小区,
1018,北京市大兴区红黄蓝幼儿园,61幼儿园,69225418,北京市大兴区时代龙和大道老街B区黄村中里39号,
1019,北京市大兴区狼各庄民族小学,61幼儿园,60275725,北京市大兴区黄村镇狼各庄西村,
1020,北京市大兴区西红门双语幼儿园,61幼儿园,60251470,北京市大兴区西红门镇兴海公园内,
1021,北京市大兴区琴岛金钰双语艺术幼儿园,61幼儿园,60226363,北京市大兴区金惠园四里,
1022,北京市大兴区绿林苑才艺幼儿园,61幼儿园,67920968,北京市大兴区西红门镇绿林苑,
1023,北京市大兴区新建小学,61幼儿园,81284385,北京市大兴区西红门镇新建村,
1024,北京市大兴区旧宫镇红星幼儿园,61幼儿园,67981368,北京市大兴区旧宫镇红星街1号,
1025,北京市大兴区旧宫镇德茂幼儿园,61幼儿园,67958073,北京市大兴区旧宫镇德茂小区德仁街1号,
1026,北京市大兴区博雅双语艺术幼儿园,61幼儿园,87912022,北京市大兴区旧宫镇育龙家园15号楼,
1027,北京市大兴区旧宫镇第一中心小学,61幼儿园,51062887,北京市大兴区旧宫镇南小街路25号,
1028,北京市大兴区青云店镇中心幼儿园,61幼儿园,80284027,北京市大兴区青云店镇二村一,
1029,北京市大兴区采育镇第一中心幼儿园,61幼儿园,80275696,北京市大兴区采育镇南三二村,
1030,北京市大兴区采育镇第二中心幼儿园,61幼儿园,80208028,北京市大兴区采育镇潘铁营村,
1031,北京市大兴区安定镇中心幼儿园,61幼儿园,80235006,北京市大兴区安定镇政府东侧,
1032,北京市大兴区礼贤镇中心幼儿园,61幼儿园,89276081,北京市大兴区礼贤镇文化站院内,
1033,北京市大兴区榆垡镇第一中心幼儿园,61幼儿园,89213923,北京市大兴区榆垡镇古镇街18号,
1034,北京市大兴区榆垡镇第二中心幼儿园,61幼儿园,89267089,北京市大兴区榆垡镇南各庄村,
1035,北京市大兴区庞各庄镇中心幼儿园,61幼儿园,89281715,北京市大兴区庞各庄镇老街,
1036,北京市大兴区庞各庄镇庆国完小,61幼儿园,89288143,北京市大兴区庞各庄镇宋各庄村东,
1037,北京市大兴区庞各庄镇第二中心小学,61幼儿园,89251248,北京市大兴区庞各庄镇定福庄村,
1038,北京市大兴区北臧村镇中心幼儿园,61幼儿园,60272284,北京市大兴区北臧村镇诸营小学院内,
1039,北京市大兴区魏善庄镇第一中心幼儿园,61幼儿园,89201440,北京市大兴区魏善庄镇魏善庄村西侧,
1040,北京市大兴区魏善庄第二中心幼儿园,61幼儿园,89231725,北京市大兴区魏善庄镇半壁店大桥南500米龙河西岸,
1041,北京市大兴区长子营镇中心幼儿园,61幼儿园,80260334,北京市大兴区长子营镇河津营村,
1042,北京市大兴区长子营镇第二中心小学,61幼儿园,80219344,北京市大兴区长子营镇朱庄村西口,
1043,北京市大兴区瀛海镇第二中心幼儿园,61幼儿园,69288069,北京市大兴区瀛海镇瑞合一村,
1044,北京市大兴区瀛海镇第一中心幼儿园,61幼儿园,69278164,北京市大兴区瀛海镇西一村南三条23号,
1045,北京市大兴区大地双语幼儿园,61幼儿园,67879167,北京经济技术开发区天华园二里2区25号楼,
1046,北京市大兴区二十一世纪实验幼儿园,61幼儿园,67896727,北京经济技术开发区天宝中街5号,
1047,北京市大兴区美格双语幼儿园,61幼儿园,67878946,北京经济开发区天华园3里1栋洋房,
1048,北京中芯幼儿园,61幼儿园,67853030,北京经济技术开发区泰河园四里三区甲10号,
1049,北京市大兴区新世纪幼儿园,61幼儿园,67898331,北京市大兴区亦庄镇贵园北里亦兴路3号,
1050,北京市大兴区亦庄镇中心幼儿园,61幼儿园,67866074,北京市大兴区亦庄镇广德中巷2号,
1051,北京市大兴区小大人幼儿园,61幼儿园,58020762,北京市大兴区亦庄小羊坊小康小区小大人幼儿园,
1052,北京市大兴区亦庄镇第二中心幼儿园,61幼儿园,67807064,北京市大兴区亦庄镇博兴八路东侧,
1053,北京市大兴区第九幼儿园,61幼儿园,69221615,北京市大兴区黄村镇兴华大街兴华园30号,
1054,北京市怀柔区庙城镇中心幼儿园,61幼儿园,60693767,北京市怀柔区庙城镇庙城村南400号,
1055,北京市怀柔区汤河口镇中心幼儿园,61幼儿园,89671208,北京市怀柔区汤河口镇汤河口村,
1056,北京市怀柔区第一幼儿园,61幼儿园,69622159,北京市怀柔区青春路23号,
1057,北京市怀柔区第二幼儿园,61幼儿园,69622792,北京市怀柔区湖光小区15号,
1058,北京市怀柔区桥梓镇中心幼儿园,61幼儿园,69675561,北京市怀柔区桥梓镇政府前院,
1059,北京市怀柔区桥梓镇北宅幼儿园,61幼儿园,60672264,北京市怀柔区桥梓镇北宅村,
1060,北京市怀柔区第三幼儿园,61幼儿园,89681517,北京市怀柔区小中富乐二区75号,
1061,北京市怀柔区渤海镇中心幼儿园,61幼儿园,61631268,北京市怀柔区渤海镇沙峪村,
1062,北京市怀柔区九渡河镇中心幼儿园,61幼儿园,61692068,北京市怀柔区九渡河镇黄坎村西,
1063,北京市怀柔区庙城镇西台下幼儿园,61幼儿园,89693644,北京市怀柔区庙城镇西台下村211号,
1064,北京市怀柔区庙城镇大杜两河幼儿园,61幼儿园,89609589,北京市怀柔区庙城镇大杜两河村101号,
1065,北京市怀柔区庙城镇赵各庄幼儿园,61幼儿园,60693957,北京市怀柔区庙城镇赵各庄253号,
1066,北京市怀柔区庙城镇小芳幼儿园,61幼儿园,89600753,北京市怀柔区庙城镇高两河村,
1067,北京市怀柔区庙城镇春艳幼儿园,61幼儿园,13716256609,北京市怀柔区庙城镇高两河村414号,
1068,北京市怀柔区庙城镇桃山幼儿园,61幼儿园,13691074383,北京市怀柔区庙城镇桃山村78号,
1069,北京市怀柔区庙城镇小太阳幼儿园,61幼儿园,13520106308,北京市怀柔区庙城镇庙城村88号,
1070,北京市怀柔区庙城镇高两河幼儿园,61幼儿园,13716563549,北京市怀柔区庙城镇高两河村552号,
1071,北京市中山第二实验幼儿园,61幼儿园,69622712,北京市怀柔区于家园南街六号,
1072,北京市怀柔区杨宋镇中心幼儿园,61幼儿园,61678795,北京市怀柔区杨宋镇仙台村北,
1073,北京市怀柔区怀北镇中心幼儿园,61幼儿园,69662039,北京市怀柔区怀北镇东庄村1号,
1074,北京市怀柔区怀柔镇津桥幼儿园,61幼儿园,69696045,北京市怀柔区怀柔镇潘家园村5号,
1075,北京市怀柔区怀柔镇中心幼儿园,61幼儿园,69643972,北京市怀柔区兴怀大街8号,
1076,北京市怀柔区怀柔镇秋实幼儿园,61幼儿园,69633126,北京市怀柔区怀柔镇潘家园村250号,
1077,北京市怀柔区怀柔镇苗康幼儿园,61幼儿园,69647771,北京市怀柔区怀柔镇南华园一区165号,
1078,北京市怀柔区怀柔镇七彩光幼儿园,61幼儿园,51350540,北京市怀柔区怀柔镇下元南市场,
1079,北京市怀柔区怀柔镇钓鱼台幼儿园,61幼儿园,13716291125,北京市怀柔区怀柔镇村南155号,
1080,北京市怀柔区怀柔镇宝宝乐托儿所,61幼儿园,69647523,北京市怀柔区怀柔镇南华园209号,
1081,北京市怀柔区怀柔镇南关幼儿园,61幼儿园,69622353,北京市怀柔区怀柔镇南关村南华园3区84号,
1082,北京市怀柔区怀柔镇东关幼儿园,61幼儿园,69602034,北京市怀柔区怀柔镇东关二区19号,
1083,北京市怀柔区怀柔镇下元市场幼儿园,61幼儿园,61641081,北京市怀柔区怀柔镇大中富乐村南,
1084,北京市怀柔区怀柔镇郭家坞幼儿园,61幼儿园,89699176,北京市怀柔区怀柔镇郭家坞村517号,
1085,北京市怀柔区怀柔镇大屯幼儿园,61幼儿园,61697556,北京市怀柔区怀柔镇大屯村东263号,
1086,北京市怀柔区怀柔镇王化幼儿园,61幼儿园,69651027,北京市怀柔区怀柔镇王化村南35号,
1087,北京市怀柔区怀柔镇大中富乐春华幼儿园,61幼儿园,89685888,北京市怀柔区怀柔镇大中富乐村南509号,
1088,北京市怀柔区怀柔镇小中富乐幼儿园,61幼儿园,89683353,北京市怀柔区怀柔镇小中富乐村一区79号,
1089,北京市怀柔区怀柔镇大中富乐村幼儿园,61幼儿园,89686736,北京市怀柔区怀柔镇大中富乐村748号,
1090,北京市怀柔区湖光第一幼儿园,61幼儿园,69622934,北京市怀柔区滨湖小区307号,
1091,北京市怀柔区北房镇中心幼儿园,61幼儿园,61681406,北京市怀柔区北房镇幸福西街5号,
1092,北京市怀柔区北房镇宰相庄幼儿园,61幼儿园,61666788,北京市怀柔区北房镇宰相庄村,
1093,北京市怀柔区雁栖镇中心幼儿园,61幼儿园,61642765,北京市怀柔区雁栖镇范各庄村北,
1094,北京市怀柔区博雅幼儿园,61幼儿园,69628461,北京市怀柔区南华园四区65号,
1096,北京市平谷区第四幼儿园,61幼儿园,69960093,北京市平谷区平谷镇金乡西小区42号,
1097,北京市平谷区夏各庄镇中心幼儿园,61幼儿园,60912590,北京市平谷区夏各庄镇安固村,
1098,北京市平谷区夏各庄镇纪太务幼儿园,61幼儿园,60912590,北京市平谷区夏各庄镇纪太务大街89号,
1099,北京市平谷区幼儿园,61幼儿园,69962246,北京市平谷区平谷镇幸福小区13号院,
1100,北京市平谷区峪口镇中心幼儿园,61幼儿园,61905718,北京市平谷区峪口镇峪口村西大街6号,
1101,北京市平谷区门楼中心幼儿园,61幼儿园,60951719,北京市平谷区东高村镇北张岱中路94号,
1102,北京市平谷区大兴庄镇中心幼儿园,61幼儿园,89931468,北京市平谷区大兴庄镇大兴庄村京路8号,
1103,北京市平谷区第二幼儿园,61幼儿园,69961699,北京市平谷区平谷镇幸福胡同12号,
1104,北京市平谷区刘家店镇刘家店中心幼儿园,61幼儿园,61971460,北京市平谷区刘家店镇寅洞村,
1105,北京市平谷区南独乐河中心幼儿园,61幼儿园,60920435,北京市平谷区南独乐河镇南独乐河村同乐路122号,
1106,北京市平谷区峰台幼儿园,61幼儿园,60920435,北京市平谷区南独乐河镇峰台村峰台南街57号,
1107,北京市平谷区乐政务中心园,61幼儿园,61922205,北京市平谷区王辛庄镇西杏园乐园路16号,
1108,北京市平谷区黄松峪中心幼儿园,61幼儿园,60971040,北京市平谷区黄松峪乡黄松峪村,
1109,北京市平谷区黑豆峪幼儿园,61幼儿园,60972354,北京市平谷区黄松峪乡黑豆峪村佛山大街11号,
1110,北京市平谷区山东庄幼儿园,61幼儿园,60937164,北京市平谷区山东庄镇山东庄村东大街3号,
1111,北京市平谷区马昌营中心园,61幼儿园,61982746,北京市平谷区马昌营镇马昌营村,
1112,北京市平谷区天井幼儿园,61幼儿园,61982746,北京市平谷区马昌营镇天井村,
1113,北京市平谷区王各庄幼儿园,61幼儿园,61982746,北京市平谷区马昌营镇王各庄村,
1114,北京市平谷区南定福幼儿园,61幼儿园,61982746,北京市平谷区马昌营镇南定福村,
1115,北京市平谷区韩庄幼儿园,61幼儿园,69996673,北京市平谷区金海湖镇韩庄北街126号,
1116,北京市平谷区洙水幼儿园,61幼儿园,69996673,北京市平谷区金海湖镇洙水村,
1117,北京市平谷区马坊镇早立庄幼儿园,61幼儿园,60995017,北京市平谷区马坊镇早立庄村北街7号,
1118,北京市平谷区马坊镇中心幼儿园,61幼儿园,60992667,北京市平谷区马坊镇西大街大街17号,
1119,北京市平谷区峪口镇第二幼儿园,61幼儿园,61911484,北京市平谷区峪口镇北杨桥村42号,
1120,北京市平谷区熊儿寨乡熊儿寨中心幼儿园,61幼儿园,61961871,北京市平谷区熊儿寨乡熊儿寨村北大街163号,
1121,北京市平谷区镇罗营中心幼儿园,61幼儿园,61960255,北京市平谷区镇罗营镇上营村南街68号,
1122,北京市平谷区第五幼儿园,61幼儿园,69956022,北京市平谷区平谷镇兴谷园小区甲5号,
1123,北京市平谷区王子岛英语幼儿园,61幼儿园,61985118,北京市平谷区马昌营镇南定福村东,
1124,北京市平谷区太平幼儿园,61幼儿园,69977230,北京市平谷区平谷镇乐园东小区16排2号,
1125,北京市平谷区第三幼儿园,61幼儿园,69964947,北京市平谷区平谷镇滨河小区12号,
1126,北京市平谷区大华山镇大华山中心幼儿园,61幼儿园,61948779,北京市平谷区大华山镇大华山村中路2号,
1127,北京市平谷区大华山镇东辛撞幼儿园,61幼儿园,61948779,北京市平谷区大华山镇东辛撞村东辛路1号,
1128,北京市平谷区英城中心幼儿园,61幼儿园,60996595,北京市平谷区马坊镇英城北大街81号,
1129,北京市平谷区平谷镇西鹿角幼儿园,61幼儿园,69913842,北京市平谷区平谷镇西鹿角村东路9号,
1130,北京市平谷区北台头幼儿园,61幼儿园,69988735,北京市平谷区平谷镇北台头大街159号,
1131,北京市平谷区育明学校,61幼儿园,69983833,北京市平谷区平谷镇林荫家园8号,
1132,北京市平谷区王辛庄镇东古幼儿园,61幼儿园,80982068,北京市平谷区王辛庄镇东古村后街7号,
1133,北京市平谷区哆来咪幼儿园,61幼儿园,89996135,北京市平谷区平谷镇新平南路32号,
1134,北京市平谷区小雨点幼儿园,61幼儿园,69981140,北京市平谷区马坊镇西大街37号,
1135,北京市平谷区红石坎幼儿园,61幼儿园,60981986,北京市平谷区金海湖镇红石坎村,
1136,北京市平谷区金海湖镇靠山集中心幼儿园,61幼儿园,60983121,北京市平谷区金海湖镇靠山集村菩萨街西巷12号,
1137,北京市平谷区人子幼儿园,61幼儿园,69936436,北京市平谷区平谷镇海关大街北一巷43号,
1138,北京市平谷区乐乐幼儿园,61幼儿园,89983498,北京市平谷区平谷镇乐园西小区40号楼东侧,
1139,北京市平谷区小树人幼儿园,61幼儿园,51322198,北京市平谷区平谷镇海关大街南二巷,
1140,北京市平谷区小红帽艺术幼儿园,61幼儿园,52518022,北京市平谷区平谷镇乐园西小区乙35号,
1141,北京市平谷区思琦幼儿园,61幼儿园,89991928,北京市平谷区平谷镇太和东园北街1号,
1142,北京市平谷区峪口镇童心幼儿园,61幼儿园,61912631,北京市平谷区峪口镇北杨桥村西大街149号,
1143,北京市平谷区东高村中心园,61幼儿园,69907282,北京市平谷区东高村镇军民共建街11号,
1144,北京市平谷区大旺务幼儿园,61幼儿园,69902615,北京市平谷区东高村镇大旺务村前街220号,
1145,北京市平谷区阳光宝贝幼儿园,61幼儿园,52792325,北京市平谷区王辛庄镇齐各庄村东路84、86、88号,
1146,北京市平谷区小星星幼儿园,61幼儿园,51321837,北京市平谷区平谷镇海关大街甲5号院,
1147,北京市平谷区峪口镇新世纪幼儿园,61幼儿园,61982163,北京市平谷区峪口镇大官庄村西路125号,
1148,密云县第一幼儿园,61幼儿园,69042037,北京市密云县西鱼市口胡同16号,
1149,密云县第二幼儿园,61幼儿园,69045044,北京市密云县果园新里中区36号楼,
1150,密云县第三幼儿园,61幼儿园,89098693,北京市密云县兴云小区8号楼,
1151,密云县第四幼儿园,61幼儿园,69068563,北京市密云县新南路107号,
1152,密云县第五幼儿园,61幼儿园,69022108,北京市密云县宾阳里28号楼东侧,
1153,密云县第六幼儿园,61幼儿园,69059038,北京市密云县檀州家园19号楼,
1154,密云县蓝天幼儿园,61幼儿园,69042526,北京市密云县沿湖小区5号楼,
1155,密云县嘉士博实验幼儿园,61幼儿园,69042286,北京市密云县鼓楼东大街马道胡同5号,
1156,密云县汇佳幼儿园,61幼儿园,89095606,北京市密云县密云镇双燕街9号,
1157,密云县世纪英才实验幼儿园,61幼儿园,69069144,北京市密云县花园小区53号楼甲,
1158,密云县石桥西区幼儿园,61幼儿园,69061388,北京市密云县石桥西区22号楼,
1159,密云县小天使幼儿园,61幼儿园,69041887,北京市密云县南更大街55号,
1160,密云县育新幼儿园,61幼儿园,69041705,北京市密云县果园新里北区21号楼,
1161,密云县小博士幼儿园,61幼儿园,69083616,北京市密云县新南路58号,
1162,密云县信远阳光幼儿园,61幼儿园,69049648,北京市密云县新西路77号,
1163,密云县密西幼儿园,61幼儿园,61090242,北京市密云县密云镇城后街25号,
1164,密云县文硕幼儿园,61幼儿园,89087269,北京市密云县宾阳北里小区3号楼,
1165,密云县密云镇中心园,61幼儿园,69047766,北京市密云县密云镇大唐庄村,
1166,密云县溪翁庄镇第一幼儿园,61幼儿园,69012485,北京市密云县溪翁庄镇溪翁庄村,
1167,密云县溪翁庄镇第三幼儿园,61幼儿园,89031010,北京市密云县溪翁庄镇东智北村,
1168,密云县西田各庄镇第二幼儿园,61幼儿园,61018065,北京市密云县西田各庄镇西田各庄村,
1169,密云县西田各庄镇第三幼儿园,61幼儿园,61019629,北京市密云县西田各庄镇疃里村,
1170,密云县西田各庄镇第四幼儿园,61幼儿园,61019309,北京市密云县西田各庄镇太子务村,
1171,密云县西田各庄镇第一幼儿园,61幼儿园,61009732,北京市密云县西田各庄镇卸甲山村,
1172,密云县十里堡镇第一幼儿园,61幼儿园,89021585,北京市密云县十里堡镇庄禾屯村,
1173,密云县十里堡镇第二幼儿园,61幼儿园,61027886,北京市密云县十里堡镇杨新庄村,
1174,密云县河南寨镇第一幼儿园,61幼儿园,61086592,北京市密云县河南寨镇河南寨村,
1175,密云县河南寨镇第二幼儿园,61幼儿园,61086097,北京市密云县河南寨镇下屯村,
1176,密云县河南寨镇第三幼儿园,61幼儿园,89091713,北京市密云县河南寨镇提辖庄村,
1177,密云县巨各庄镇第二幼儿园,61幼儿园,61032153,北京市密云县巨各庄镇八家庄村,
1178,密云县巨各庄镇第三幼儿园,61幼儿园,89092689,北京市密云县巨各庄镇蔡家洼村,
1179,密云县巨各庄镇第一幼儿园,61幼儿园,61032045,北京市密云县巨各庄镇前焦家务村,
1180,密云县穆家峪镇第一幼儿园,61幼儿园,61051220,北京市密云县穆家峪镇南穆家峪村,
1181,密云县穆家峪镇第四幼儿园,61幼儿园,61051458,北京市密云县穆家峪镇西穆家峪村,
1182,密云县穆家峪镇第三幼儿园,61幼儿园,89011795,北京市密云县穆家峪镇后栗园村,
1183,密云县穆家峪镇第二幼儿园,61幼儿园,89011376,北京市密云县穆家峪镇前栗园村,
1184,密云县穆家峪镇成长托儿所,61幼儿园,89010659,北京市密云县穆家峪镇新农村,
1185,密云县穆家峪镇春蕾托儿所,61幼儿园,89012126,北京市密云县穆家峪镇新农村,
1186,密云县太师屯镇第一幼儿园,61幼儿园,69036381,北京市密云县太师屯镇葡萄园村,
1187,密云县太师屯镇第三幼儿园,61幼儿园,81061034,北京市密云县太师屯镇桑园村,
1188,密云县太师屯镇第二幼儿园,61幼儿园,69034344,北京市密云县太师屯镇东庄禾村,
1189,密云县高岭镇第一幼儿园,61幼儿园,81084775,北京市密云县高岭镇高岭村,
1190,密云县高岭镇第四幼儿园,61幼儿园,81081659,北京市密云县高岭镇上甸子村,
1191,密云县高岭镇第三幼儿园,61幼儿园,81081265,北京市密云县高岭镇栗榛寨村,
1192,密云县高岭镇第二幼儿园,61幼儿园,81081265,北京市密云县高岭镇放马峪村,
1193,密云县不老屯镇第一幼儿园,61幼儿园,81092540,北京市密云县不老屯镇不老屯村,
1194,密云县不老屯镇第二幼儿园,61幼儿园,81097243,北京市密云县不老屯镇半城子村,
1195,密云县冯家峪镇幼儿园,61幼儿园,81060353,北京市密云县冯家峪镇冯家峪村,
1196,密云县古北口镇幼儿园,61幼儿园,81052576,北京市密云县古北口镇古北口村,
1197,密云县大城子镇第一幼儿园,61幼儿园,61071837,北京市密云县大城子镇高庄子村,
1198,密云县大城子镇第二幼儿园,61幼儿园,61071837,北京市密云县大城子镇墙子路村,
1199,密云县东邵渠镇幼儿园,61幼儿园,61061524,北京市密云县东邵渠镇东邵渠村,
1200,密云县北庄镇幼儿园,61幼儿园,81001088,北京市密云县北庄镇北庄村华盛路68号,
1201,密云县新城子镇第一幼儿园,61幼儿园,81021794,北京市密云县新城子镇新城子村,
1202,密云县新城子镇第二幼儿园,61幼儿园,81021116,北京市密云县新城子镇曹家路村,
1203,密云县石城镇幼儿园,61幼儿园,61025169,北京市密云县石城镇南石城村,
1204,密云县檀营幼儿园,62独立设置的少数民族幼儿园,69091833,北京市密云县檀营乡檀营村,
1205,延庆县育才幼儿园,61幼儿园,13716578550,北京市延庆县康庄镇一街,
1206,延庆县刘斌堡中心园,61幼儿园,60181013,北京市延庆县刘斌堡乡刘斌堡村,
1207,延庆县爱心早教班,61幼儿园,69104543,北京市延庆县延庆镇自由街风水街38号,
1208,延庆县腾飞幼儿园,61幼儿园,18910583727,北京市延庆县康庄镇四街村,
1209,延庆县旧县镇中心幼儿园,61幼儿园,61151965,北京市延庆县旧县镇旧县村,
1210,延庆县张山营中心园,61幼儿园,81186858,北京市延庆县张山营镇上板泉村,
1211,延庆县井庄中心园,61幼儿园,61191704,北京市延庆县井家庄镇井家庄村,
1212,延庆县沈家营中心园,61幼儿园,61133068,北京市延庆县沈家营镇沈家营村,
1213,延庆县大柏老中心幼儿园,61幼儿园,61151980,北京市延庆县旧县镇大柏老村,
1214,延庆县永宁小学幼儿园,61幼儿园,60192823,北京市延庆县永宁镇和平街城皇庙胡同,
1215,延庆县康庄小区幼儿园,61幼儿园,61161316,北京市延庆县康庄镇小区幼儿园,
1216,延庆县大榆树镇中心园,61幼儿园,61181179,北京市延庆县大榆树镇大榆树村2号,
1217,延庆县八达岭中心幼儿园,61幼儿园,69129491,北京市延庆县八达岭镇西拨子村北,
1218,延庆县珍珠泉乡中心园,61幼儿园,60186413,北京市延庆县珍珠泉乡珍珠泉村,
1219,延庆县第一幼儿园,61幼儿园,69103284,北京市延庆县延庆镇西街11号,
1220,延庆县香营中心幼儿园,61幼儿园,60161845,北京市延庆县香营乡香营村,
1221,延庆县第三幼儿园,61幼儿园,69142291,北京市延庆县延庆镇新城街133号,
1222,延庆县八里庄中心园,61幼儿园,61121811,北京市延庆县延庆镇八里庄村南,
1223,延庆县小太阳幼儿园,61幼儿园,13716785852,北京市延庆县永宁镇阜民街南城胡同10号,
1224,延庆县第二幼儿园,61幼儿园,52516648,北京市延庆县延庆镇百莲路10号,
1225,延庆县小丰营中心小学幼儿园,61幼儿园,81187470,北京市延庆县康庄镇小丰营村,
1226,延庆县第四小学幼儿园,61幼儿园,81198749,北京市延庆县延庆镇南菜园二区第四小学,
1227,延庆县民族小学幼儿园,61幼儿园,60170258,北京市延庆县永宁镇吴坊营村,
1228,延庆县第三小学幼儿园,61幼儿园,69181633,北京市延庆县延庆镇东外大街66号,
1229,延庆镇西屯中心园,61幼儿园,61111890,北京市延庆县延庆镇新白庙村北,
1230,延庆县第四幼儿园,61幼儿园,69101580,北京市延庆县延庆镇高塔街49号,
1231,延庆县阳光幼儿园,61幼儿园,13716979487,北京市延庆县康庄镇军属大院,
1232,延庆县童园乐幼儿园,61幼儿园,69129963,北京市延庆县八达岭镇西拨子村,
1233,延庆县金才幼儿园,61幼儿园,13810077926,北京市延庆县延庆镇自由街风水街甲1号,
1234,延庆县三育幼儿园,61幼儿园,13717733941,北京市延庆县延庆镇燕水佳园9号楼101室,
1235,延庆县蒙蒙双语幼儿园,61幼儿园,85486557,北京市延庆县延庆镇尚书苑小区底商4-43,
1236,延庆县普林斯顿艺术幼儿园,61幼儿园,69188994,北京市延庆县延庆镇新城街10号,
1237,延庆县童乐园托儿所,61幼儿园,13371623942,北京市延庆县延庆镇川北小区12号楼302室,
1238,延庆县七彩童星幼儿园,61幼儿园,81196004,北京市延庆县延庆镇湖南社区妫水南街19号,
1239,延庆县红苹果幼儿园,61幼儿园,15910799042,北京市延庆县延庆镇司家营东南街9号,
1240,延庆县诚远幼儿园,61幼儿园,61122569,北京市延庆县延庆镇孟庄村建东小区甲3号,
1241,延庆县新鑫幼儿园,61幼儿园,13241600976,北京市延庆县延庆镇石河营村新村6排7号,
1242,延庆县小明星幼儿园,61幼儿园,13699134995,北京市延庆县延庆镇莲花池村,
1243,延庆县探春幼儿园,61幼儿园,51059255,北京市延庆县延庆镇石河营村,
1244,延庆县五星幼儿园,61幼儿园,69187168,北京市延庆县延庆镇小营村9排6号,
1245,延庆县育心幼儿园,61幼儿园,61117019,北京市延庆县延庆镇振兴南区17号楼602室,
1246,延庆县英博幼儿园,61幼儿园,86110148,北京市延庆县延庆镇百泉街道振兴南区16号楼502室,
1247,延庆县新生幼儿园,61幼儿园,61121779,北京市延庆县延庆镇赵庄村中街路11号,
1248,延庆县康庄幼儿园,61幼儿园,15810818190,北京市延庆县康庄镇一街村保洁公司院内,
1249,延庆县双语幼儿园,61幼儿园,15910459625,北京市延庆县延庆镇南菜园二区甲2-7,
1250,延庆县第二小学幼儿园,61幼儿园,69175158,北京市延庆县延庆镇高塔街19号,
1251,北京市大兴区旧宫镇第一中心幼儿园,61幼儿园,87971186,北京市大兴区旧宫镇庑殿路碧海公园北侧,
